[
  {
    "stateName": "DELHI",
    "circleName": "Delhi Circle",
    "regionName": "DivReportingCircle",
    "divisionName": "Delhi North Division",
    "officeName": "Kadipur BO",
    "pinCode": "110036",
    "officeType": "BO",
    "district": "NORTH",
    "latitude": "28.7978055",
    "longitude": "77.13"
  },
  {
    "stateName": "DELHI",
    "circleName": "Delhi Circle",
    "regionName": "DivReportingCircle",
    "divisionName": "Delhi North Division",
    "officeName": "Nangal Poona BO",
    "pinCode": "110036",
    "officeType": "BO",
    "district": "NORTH",
    "latitude": "28.7978055",
    "longitude": "77.13"
  },
  {
    "stateName": "DELHI",
    "circleName": "Delhi Circle",
    "regionName": "DivReportingCircle",
    "divisionName": "Delhi North Division",
    "officeName": "Katewara BO",
    "pinCode": "110039",
    "officeType": "BO",
    "district": "NORTH",
    "latitude": "28.7996944",
    "longitude": "77.0380555"
  },
  {
    "stateName": "DELHI",
    "circleName": "Delhi Circle",
    "regionName": "DivReportingCircle",
    "divisionName": "Delhi North Division",
    "officeName": "Mungeshpur BO",
    "pinCode": "110039",
    "officeType": "BO",
    "district": "NORTH",
    "latitude": "28.7996944",
    "longitude": "77.0380555"
  },
  {
    "stateName": "DELHI",
    "circleName": "Delhi Circle",
    "regionName": "DivReportingCircle",
    "divisionName": "Delhi North Division",
    "officeName": "Chand Pur BO",
    "pinCode": "110081",
    "officeType": "BO",
    "district": "NORTH WEST",
    "latitude": "28.7349166",
    "longitude": "77.0055555"
  },
  {
    "stateName": "DELHI",
    "circleName": "Delhi Circle",
    "regionName": "DivReportingCircle",
    "divisionName": "Delhi North Division",
    "officeName": "Jaunti BO",
    "pinCode": "110081",
    "officeType": "BO",
    "district": "NORTH WEST",
    "latitude": "28.7349166",
    "longitude": "77.0055555"
  },
  {
    "stateName": "DELHI",
    "circleName": "Delhi Circle",
    "regionName": "DivReportingCircle",
    "divisionName": "Delhi North Division",
    "officeName": "Lad Pur BO",
    "pinCode": "110081",
    "officeType": "BO",
    "district": "NORTH WEST",
    "latitude": "28.7349166",
    "longitude": "77.0055555"
  },
  {
    "stateName": "DELHI",
    "circleName": "Delhi Circle",
    "regionName": "DivReportingCircle",
    "divisionName": "Delhi North Division",
    "officeName": "Majra Dabas BO",
    "pinCode": "110081",
    "officeType": "BO",
    "district": "NORTH WEST",
    "latitude": "28.7349166",
    "longitude": "77.0055555"
  },
  {
    "stateName": "DELHI",
    "circleName": "Delhi Circle",
    "regionName": "DivReportingCircle",
    "divisionName": "Delhi North Division",
    "officeName": "Holambi Kalan BO",
    "pinCode": "110082",
    "officeType": "BO",
    "district": "NORTH",
    "latitude": "28.7721666",
    "longitude": "77.119"
  },
  {
    "stateName": "DELHI",
    "circleName": "Delhi Circle",
    "regionName": "DivReportingCircle",
    "divisionName": "Delhi North Division",
    "officeName": "Khera Khurd BO",
    "pinCode": "110082",
    "officeType": "BO",
    "district": "NORTH",
    "latitude": "28.7721666",
    "longitude": "77.119"
  },
  {
    "stateName": "DELHI",
    "circleName": "Delhi Circle",
    "regionName": "DivReportingCircle",
    "divisionName": "Delhi North Division",
    "officeName": "Budh Vihar BO",
    "pinCode": "110086",
    "officeType": "BO",
    "district": "NORTH WEST",
    "latitude": "28.7016111",
    "longitude": "77.0797222"
  },
  {
    "stateName": "DELHI",
    "circleName": "Delhi Circle",
    "regionName": "DivReportingCircle",
    "divisionName": "New Delhi South Division",
    "officeName": "Molarband BO",
    "pinCode": "110044",
    "officeType": "BO",
    "district": "SOUTH",
    "latitude": "28.53",
    "longitude": "77.21"
  },
  {
    "stateName": "DELHI",
    "circleName": "Delhi Circle",
    "regionName": "DivReportingCircle",
    "divisionName": "New Delhi South Division",
    "officeName": "Lal Kuan BO",
    "pinCode": "110044",
    "officeType": "BO",
    "district": "SOUTH",
    "latitude": "28.53",
    "longitude": "77.21"
  },
  {
    "stateName": "DELHI",
    "circleName": "Delhi Circle",
    "regionName": "DivReportingCircle",
    "divisionName": "New Delhi South Division",
    "officeName": "Madanpur Khadar BO",
    "pinCode": "110076",
    "officeType": "BO",
    "district": "SOUTH",
    "latitude": "28.53",
    "longitude": "77.3"
  },
  {
    "stateName": "DELHI",
    "circleName": "Delhi Circle",
    "regionName": "DivReportingCircle",
    "divisionName": "New Delhi South Division",
    "officeName": "Sahpurjat BO",
    "pinCode": "110049",
    "officeType": "BO",
    "district": "SOUTH",
    "latitude": "28.55",
    "longitude": "77.21"
  },
  {
    "stateName": "DELHI",
    "circleName": "Delhi Circle",
    "regionName": "DivReportingCircle",
    "divisionName": "New Delhi South West Division",
    "officeName": "Chandanhoola BO",
    "pinCode": "110074",
    "officeType": "BO",
    "district": "SOUTH",
    "latitude": "28.45",
    "longitude": "77.18"
  },
  {
    "stateName": "DELHI",
    "circleName": "Delhi Circle",
    "regionName": "DivReportingCircle",
    "divisionName": "New Delhi South West Division",
    "officeName": "Sanjay Colony Bhati Mines BO",
    "pinCode": "110074",
    "officeType": "BO",
    "district": "SOUTH",
    "latitude": "28.5073055",
    "longitude": "77.1845555"
  },
  {
    "stateName": "DELHI",
    "circleName": "Delhi Circle",
    "regionName": "DivReportingCircle",
    "divisionName": "New Delhi South West Division",
    "officeName": "Aps Colony BO",
    "pinCode": "110010",
    "officeType": "BO",
    "district": "NEW DELHI",
    "latitude": "28.57",
    "longitude": "77.13"
  },
  {
    "stateName": "DELHI",
    "circleName": "Delhi Circle",
    "regionName": "DivReportingCircle",
    "divisionName": "New Delhi South West Division",
    "officeName": "Gadaipur BO",
    "pinCode": "110030",
    "officeType": "BO",
    "district": "SOUTH",
    "latitude": "28.5176111",
    "longitude": "77.1793611"
  },
  {
    "stateName": "DELHI",
    "circleName": "Delhi Circle",
    "regionName": "DivReportingCircle",
    "divisionName": "New Delhi West Division",
    "officeName": "Kair B.O",
    "pinCode": "110043",
    "officeType": "BO",
    "district": "WEST",
    "latitude": "30.04442",
    "longitude": "31.235712"
  },
  {
    "stateName": "DELHI",
    "circleName": "Delhi Circle",
    "regionName": "DivReportingCircle",
    "divisionName": "New Delhi West Division",
    "officeName": "Jhatikara B.O",
    "pinCode": "110043",
    "officeType": "BO",
    "district": "WEST",
    "latitude": "28.520905",
    "longitude": "76.964011"
  },
  {
    "stateName": "DELHI",
    "circleName": "Delhi Circle",
    "regionName": "DivReportingCircle",
    "divisionName": "New Delhi West Division",
    "officeName": "Nasirpur B.O",
    "pinCode": "110045",
    "officeType": "BO",
    "district": "SOUTH WEST",
    "latitude": "28.597176",
    "longitude": "77.090783"
  },
  {
    "stateName": "DELHI",
    "circleName": "Delhi Circle",
    "regionName": "DivReportingCircle",
    "divisionName": "New Delhi West Division",
    "officeName": "Dhulsiras B.O",
    "pinCode": "110077",
    "officeType": "BO",
    "district": "SOUTH WEST",
    "latitude": "28.564173",
    "longitude": "77.041334"
  },
  {
    "stateName": "DELHI",
    "circleName": "Delhi Circle",
    "regionName": "DivReportingCircle",
    "divisionName": "New Delhi West Division",
    "officeName": "Peeragarhi B.O",
    "pinCode": "110087",
    "officeType": "BO",
    "district": "WEST",
    "latitude": "28.679745",
    "longitude": "77.092689"
  },
  {
    "stateName": "DELHI",
    "circleName": "Delhi Circle",
    "regionName": "DivReportingCircle",
    "divisionName": "New Delhi West Division",
    "officeName": "Hirankudna B.O",
    "pinCode": "110041",
    "officeType": "BO",
    "district": "WEST",
    "latitude": "28.673136",
    "longitude": "76.998405"
  },
  {
    "stateName": "DELHI",
    "circleName": "Delhi Circle",
    "regionName": "DivReportingCircle",
    "divisionName": "Delhi East Division",
    "officeName": "Gokal Puri SO",
    "pinCode": "110094",
    "officeType": "PO",
    "district": "NORTH EAST",
    "latitude": "28.7039444",
    "longitude": "77.2833056"
  },
  {
    "stateName": "DELHI",
    "circleName": "Delhi Circle",
    "regionName": "DivReportingCircle",
    "divisionName": "Delhi East Division",
    "officeName": "New Seemapuri SO",
    "pinCode": "110095",
    "officeType": "PO",
    "district": "SHAHDARA",
    "latitude": "28.6891667",
    "longitude": "77.3285"
  },
  {
    "stateName": "DELHI",
    "circleName": "Delhi Circle",
    "regionName": "DivReportingCircle",
    "divisionName": "Delhi East Division",
    "officeName": "Shahdara SO",
    "pinCode": "110032",
    "officeType": "PO",
    "district": "SHAHDARA",
    "latitude": "28.6754167",
    "longitude": "77.2903611"
  },
  {
    "stateName": "DELHI",
    "circleName": "Delhi Circle",
    "regionName": "DivReportingCircle",
    "divisionName": "Delhi East Division",
    "officeName": "Himmatpuri SO",
    "pinCode": "110091",
    "officeType": "PO",
    "district": "EAST",
    "latitude": "28.6053889",
    "longitude": "77.3073333"
  },
  {
    "stateName": "DELHI",
    "circleName": "Delhi Circle",
    "regionName": "DivReportingCircle",
    "divisionName": "Delhi East Division",
    "officeName": "IP Extension SO",
    "pinCode": "110092",
    "officeType": "PO",
    "district": "EAST",
    "latitude": "28.6336389",
    "longitude": "77.3111944"
  },
  {
    "stateName": "DELHI",
    "circleName": "Delhi Circle",
    "regionName": "DivReportingCircle",
    "divisionName": "Delhi East Division",
    "officeName": "Kalyanpuri SO",
    "pinCode": "110091",
    "officeType": "PO",
    "district": "EAST",
    "latitude": "28.6146944",
    "longitude": "77.3178056"
  },
  {
    "stateName": "DELHI",
    "circleName": "Delhi Circle",
    "regionName": "DivReportingCircle",
    "divisionName": "Delhi East Division",
    "officeName": "Trilok Puri SO",
    "pinCode": "110091",
    "officeType": "PO",
    "district": "EAST",
    "latitude": "28.6138889",
    "longitude": "77.2935556"
  },
  {
    "stateName": "DELHI",
    "circleName": "Delhi Circle",
    "regionName": "DivReportingCircle",
    "divisionName": "Delhi East Division",
    "officeName": "Vishwas Nagar SO",
    "pinCode": "110032",
    "officeType": "PO",
    "district": "SHAHDARA",
    "latitude": "28.6668333",
    "longitude": "77.2946389"
  },
  {
    "stateName": "DELHI",
    "circleName": "Delhi Circle",
    "regionName": "DivReportingCircle",
    "divisionName": "Delhi East Division",
    "officeName": "KRISHNA NAGAR NDC",
    "pinCode": "110151",
    "officeType": "PO",
    "district": "SHAHDARA",
    "latitude": "28.645733",
    "longitude": "77.2997737"
  },
  {
    "stateName": "DELHI",
    "circleName": "Delhi Circle",
    "regionName": "DivReportingCircle",
    "divisionName": "Delhi North Division",
    "officeName": "Aruna Nagar SO",
    "pinCode": "110054",
    "officeType": "PO",
    "district": "CENTRAL",
    "latitude": "28.697557",
    "longitude": "77.225067"
  },
  {
    "stateName": "DELHI",
    "circleName": "Delhi Circle",
    "regionName": "DivReportingCircle",
    "divisionName": "Delhi North Division",
    "officeName": "Civil Lines SO North Delhi",
    "pinCode": "110054",
    "officeType": "PO",
    "district": "CENTRAL",
    "latitude": "28.6624167",
    "longitude": "77.2348333"
  },
  {
    "stateName": "DELHI",
    "circleName": "Delhi Circle",
    "regionName": "DivReportingCircle",
    "divisionName": "Delhi North Division",
    "officeName": "Gulabi Bagh SO",
    "pinCode": "110007",
    "officeType": "PO",
    "district": "NORTH WEST",
    "latitude": "28.6736944",
    "longitude": "77.1918333"
  },
  {
    "stateName": "DELHI",
    "circleName": "Delhi Circle",
    "regionName": "DivReportingCircle",
    "divisionName": "Delhi North Division",
    "officeName": "Malka Ganj SO",
    "pinCode": "110007",
    "officeType": "PO",
    "district": "CENTRAL",
    "latitude": "28.6765833",
    "longitude": "77.2088333"
  },
  {
    "stateName": "DELHI",
    "circleName": "Delhi Circle",
    "regionName": "DivReportingCircle",
    "divisionName": "Delhi North Division",
    "officeName": "Alipur SO",
    "pinCode": "110036",
    "officeType": "PO",
    "district": "NORTH",
    "latitude": "28.7978056",
    "longitude": "77.13"
  },
  {
    "stateName": "DELHI",
    "circleName": "Delhi Circle",
    "regionName": "DivReportingCircle",
    "divisionName": "Delhi North Division",
    "officeName": "Anandvas Shakurpur SO",
    "pinCode": "110034",
    "officeType": "PO",
    "district": "NORTH WEST",
    "latitude": "28.7061667",
    "longitude": "77.1483333"
  },
  {
    "stateName": "DELHI",
    "circleName": "Delhi Circle",
    "regionName": "DivReportingCircle",
    "divisionName": "Delhi North Division",
    "officeName": "Delhi Engg College SO",
    "pinCode": "110042",
    "officeType": "PO",
    "district": "NORTH WEST",
    "latitude": "28.7463611",
    "longitude": "77.1185278"
  },
  {
    "stateName": "DELHI",
    "circleName": "Delhi Circle",
    "regionName": "DivReportingCircle",
    "divisionName": "Delhi North Division",
    "officeName": "Gujranwala Colony SO",
    "pinCode": "110009",
    "officeType": "PO",
    "district": "NORTH WEST",
    "latitude": "28.6955833",
    "longitude": "77.1901111"
  },
  {
    "stateName": "DELHI",
    "circleName": "Delhi Circle",
    "regionName": "DivReportingCircle",
    "divisionName": "Delhi North Division",
    "officeName": "Jahangir Puri A Block SO",
    "pinCode": "110033",
    "officeType": "PO",
    "district": "NORTH",
    "latitude": "28.72775",
    "longitude": "77.1636111"
  },
  {
    "stateName": "DELHI",
    "circleName": "Delhi Circle",
    "regionName": "DivReportingCircle",
    "divisionName": "Delhi North Division",
    "officeName": "Jahangir Puri H Block SO",
    "pinCode": "110033",
    "officeType": "PO",
    "district": "NORTH",
    "latitude": "28.7271389",
    "longitude": "77.1749722"
  },
  {
    "stateName": "DELHI",
    "circleName": "Delhi Circle",
    "regionName": "DivReportingCircle",
    "divisionName": "Delhi North Division",
    "officeName": "Mangolpuri I  Block SO",
    "pinCode": "110083",
    "officeType": "PO",
    "district": "NORTH WEST",
    "latitude": "28.7147778",
    "longitude": "77.0878333"
  },
  {
    "stateName": "DELHI",
    "circleName": "Delhi Circle",
    "regionName": "DivReportingCircle",
    "divisionName": "Delhi North Division",
    "officeName": "Mangolpuri S Block SO",
    "pinCode": "110083",
    "officeType": "PO",
    "district": "NORTH WEST",
    "latitude": "28.6904722",
    "longitude": "77.0822778"
  },
  {
    "stateName": "DELHI",
    "circleName": "Delhi Circle",
    "regionName": "DivReportingCircle",
    "divisionName": "Delhi North Division",
    "officeName": "Model Town II SO",
    "pinCode": "110009",
    "officeType": "PO",
    "district": "NORTH",
    "latitude": "28.7062778",
    "longitude": "77.1897222"
  },
  {
    "stateName": "DELHI",
    "circleName": "Delhi Circle",
    "regionName": "DivReportingCircle",
    "divisionName": "Delhi North Division",
    "officeName": "Model Town III SO",
    "pinCode": "110009",
    "officeType": "PO",
    "district": "NORTH",
    "latitude": "28.7075278",
    "longitude": "77.1880556"
  },
  {
    "stateName": "DELHI",
    "circleName": "Delhi Circle",
    "regionName": "DivReportingCircle",
    "divisionName": "Delhi North Division",
    "officeName": "Rohini Sector 5 SO",
    "pinCode": "110085",
    "officeType": "PO",
    "district": "NORTH WEST",
    "latitude": "28.71575",
    "longitude": "77.11"
  },
  {
    "stateName": "DELHI",
    "circleName": "Delhi Circle",
    "regionName": "DivReportingCircle",
    "divisionName": "Delhi North Division",
    "officeName": "Shakur Pur I  Block SO",
    "pinCode": "110034",
    "officeType": "PO",
    "district": "NORTH WEST",
    "latitude": "28.6899722",
    "longitude": "77.1466667"
  },
  {
    "stateName": "DELHI",
    "circleName": "Delhi Circle",
    "regionName": "DivReportingCircle",
    "divisionName": "Delhi North Division",
    "officeName": "ROHINI SECTOR 23 SO",
    "pinCode": "110099",
    "officeType": "PO",
    "district": "NORTH WEST",
    "latitude": "28.720596",
    "longitude": "77.080909"
  },
  {
    "stateName": "DELHI",
    "circleName": "Delhi Circle",
    "regionName": "DivReportingCircle",
    "divisionName": "Delhi North Division",
    "officeName": "Shahbad Dairy PO",
    "pinCode": "110042",
    "officeType": "PO",
    "district": "NORTH",
    "latitude": "28.741421",
    "longitude": "77.094711"
  },
  {
    "stateName": "DELHI",
    "circleName": "Delhi Circle",
    "regionName": "DivReportingCircle",
    "divisionName": "Delhi North Division",
    "officeName": "Tikri Khurd",
    "pinCode": "110040",
    "officeType": "PO",
    "district": "NORTH",
    "latitude": "NA",
    "longitude": "NA"
  },
  {
    "stateName": "DELHI",
    "circleName": "Delhi Circle",
    "regionName": "DivReportingCircle",
    "divisionName": "Delhi North Division",
    "officeName": "G T B Nagar extension SO",
    "pinCode": "110009",
    "officeType": "PO",
    "district": "NORTH",
    "latitude": "28.698444",
    "longitude": "77.202111"
  },
  {
    "stateName": "DELHI",
    "circleName": "Delhi Circle",
    "regionName": "DivReportingCircle",
    "divisionName": "New Delhi Central Division",
    "officeName": "Pragati Maidan SO",
    "pinCode": "110001",
    "officeType": "PO",
    "district": "NEW DELHI",
    "latitude": "28.61675",
    "longitude": "77.2934444"
  },
  {
    "stateName": "DELHI",
    "circleName": "Delhi Circle",
    "regionName": "DivReportingCircle",
    "divisionName": "New Delhi Central Division",
    "officeName": "Supreme Court SO",
    "pinCode": "110001",
    "officeType": "PO",
    "district": "NEW DELHI",
    "latitude": "28.6212222",
    "longitude": "77.2380278"
  },
  {
    "stateName": "DELHI",
    "circleName": "Delhi Circle",
    "regionName": "DivReportingCircle",
    "divisionName": "New Delhi Central Division",
    "officeName": "Election Commission SO",
    "pinCode": "110001",
    "officeType": "PO",
    "district": "NEW DELHI",
    "latitude": "28.6237778",
    "longitude": "77.2108611"
  },
  {
    "stateName": "DELHI",
    "circleName": "Delhi Circle",
    "regionName": "DivReportingCircle",
    "divisionName": "New Delhi Central Division",
    "officeName": "Secretariat North SO",
    "pinCode": "110001",
    "officeType": "PO",
    "district": "NEW DELHI",
    "latitude": "28.6178889",
    "longitude": "77.2019167"
  },
  {
    "stateName": "DELHI",
    "circleName": "Delhi Circle",
    "regionName": "DivReportingCircle",
    "divisionName": "New Delhi Central Division",
    "officeName": "NDC NDHO",
    "pinCode": "110102",
    "officeType": "PO",
    "district": "NEW DELHI",
    "latitude": "28.6314278",
    "longitude": "77.205714"
  },
  {
    "stateName": "DELHI",
    "circleName": "Delhi Circle",
    "regionName": "DivReportingCircle",
    "divisionName": "New Delhi Central Division",
    "officeName": "Anand Parbat Indl Area SO",
    "pinCode": "110005",
    "officeType": "PO",
    "district": "CENTRAL",
    "latitude": "28.6614722",
    "longitude": "77.1780556"
  },
  {
    "stateName": "DELHI",
    "circleName": "Delhi Circle",
    "regionName": "DivReportingCircle",
    "divisionName": "New Delhi Central Division",
    "officeName": "Bhagat Singh Market SO",
    "pinCode": "110001",
    "officeType": "PO",
    "district": "NEW DELHI",
    "latitude": "28.6330556",
    "longitude": "77.2077222"
  },
  {
    "stateName": "DELHI",
    "circleName": "Delhi Circle",
    "regionName": "DivReportingCircle",
    "divisionName": "New Delhi Central Division",
    "officeName": "Inderpuri SO",
    "pinCode": "110012",
    "officeType": "PO",
    "district": "WEST",
    "latitude": "28.6320278",
    "longitude": "77.1484167"
  },
  {
    "stateName": "DELHI",
    "circleName": "Delhi Circle",
    "regionName": "DivReportingCircle",
    "divisionName": "New Delhi Central Division",
    "officeName": "Karol Bagh SO",
    "pinCode": "110005",
    "officeType": "PO",
    "district": "CENTRAL",
    "latitude": "28.6500278",
    "longitude": "77.1938333"
  },
  {
    "stateName": "DELHI",
    "circleName": "Delhi Circle",
    "regionName": "DivReportingCircle",
    "divisionName": "New Delhi Central Division",
    "officeName": "Master Prithvi Nath Marg SO",
    "pinCode": "110005",
    "officeType": "PO",
    "district": "CENTRAL",
    "latitude": "28.6500278",
    "longitude": "77.1938333"
  },
  {
    "stateName": "DELHI",
    "circleName": "Delhi Circle",
    "regionName": "DivReportingCircle",
    "divisionName": "New Delhi Central Division",
    "officeName": "Patel Nagar SO Central Delhi",
    "pinCode": "110008",
    "officeType": "PO",
    "district": "WEST",
    "latitude": "28.6476",
    "longitude": "77.1695"
  },
  {
    "stateName": "DELHI",
    "circleName": "Delhi Circle",
    "regionName": "DivReportingCircle",
    "divisionName": "New Delhi Central Division",
    "officeName": "Rajender Nagar SO",
    "pinCode": "110060",
    "officeType": "PO",
    "district": "CENTRAL",
    "latitude": "28.6367222",
    "longitude": "77.1831111"
  },
  {
    "stateName": "DELHI",
    "circleName": "Delhi Circle",
    "regionName": "DivReportingCircle",
    "divisionName": "New Delhi GPO Division",
    "officeName": "RML EXTN COUNTER NDHO",
    "pinCode": "110001",
    "officeType": "PO",
    "district": "NEW DELHI",
    "latitude": "28.626806",
    "longitude": "77.20663"
  },
  {
    "stateName": "DELHI",
    "circleName": "Delhi Circle",
    "regionName": "DivReportingCircle",
    "divisionName": "New Delhi South Division",
    "officeName": "Dakshinpuri PhaseII SO",
    "pinCode": "110062",
    "officeType": "PO",
    "district": "SOUTH",
    "latitude": "28.5201111",
    "longitude": "77.23975"
  },
  {
    "stateName": "DELHI",
    "circleName": "Delhi Circle",
    "regionName": "DivReportingCircle",
    "divisionName": "New Delhi South Division",
    "officeName": "Nehru Place SO",
    "pinCode": "110019",
    "officeType": "PO",
    "district": "South East",
    "latitude": "28.5498056",
    "longitude": "77.3210556"
  },
  {
    "stateName": "DELHI",
    "circleName": "Delhi Circle",
    "regionName": "DivReportingCircle",
    "divisionName": "New Delhi South Division",
    "officeName": "New Friends Colony SO",
    "pinCode": "110025",
    "officeType": "PO",
    "district": "SOUTH",
    "latitude": "28.5618611",
    "longitude": "77.26825"
  },
  {
    "stateName": "DELHI",
    "circleName": "Delhi Circle",
    "regionName": "DivReportingCircle",
    "divisionName": "New Delhi South Division",
    "officeName": "Pushpa Bhawan SO",
    "pinCode": "110062",
    "officeType": "PO",
    "district": "SOUTH",
    "latitude": "28.5276111",
    "longitude": "77.2328056"
  },
  {
    "stateName": "DELHI",
    "circleName": "Delhi Circle",
    "regionName": "DivReportingCircle",
    "divisionName": "New Delhi South Division",
    "officeName": "Tugalkabad Railway Colony SO",
    "pinCode": "110044",
    "officeType": "PO",
    "district": "South East",
    "latitude": "28.5049167",
    "longitude": "77.2891111"
  },
  {
    "stateName": "DELHI",
    "circleName": "Delhi Circle",
    "regionName": "DivReportingCircle",
    "divisionName": "New Delhi South Division",
    "officeName": "Amar Colony SO",
    "pinCode": "110024",
    "officeType": "PO",
    "district": "South East",
    "latitude": "28.5631667",
    "longitude": "77.24875"
  },
  {
    "stateName": "DELHI",
    "circleName": "Delhi Circle",
    "regionName": "DivReportingCircle",
    "divisionName": "New Delhi South Division",
    "officeName": "Andrewsganj SO",
    "pinCode": "110049",
    "officeType": "PO",
    "district": "SOUTH",
    "latitude": "28.5640278",
    "longitude": "77.2324167"
  },
  {
    "stateName": "DELHI",
    "circleName": "Delhi Circle",
    "regionName": "DivReportingCircle",
    "divisionName": "New Delhi South Division",
    "officeName": "C G O Complex SO",
    "pinCode": "110003",
    "officeType": "PO",
    "district": "South East",
    "latitude": "28.5889167",
    "longitude": "77.2442778"
  },
  {
    "stateName": "DELHI",
    "circleName": "Delhi Circle",
    "regionName": "DivReportingCircle",
    "divisionName": "New Delhi South Division",
    "officeName": "Gautam Nagar SO",
    "pinCode": "110049",
    "officeType": "PO",
    "district": "South East",
    "latitude": "28.561709",
    "longitude": "77.211224"
  },
  {
    "stateName": "DELHI",
    "circleName": "Delhi Circle",
    "regionName": "DivReportingCircle",
    "divisionName": "New Delhi South Division",
    "officeName": "New Delhi South ExtII SO",
    "pinCode": "110049",
    "officeType": "PO",
    "district": "South East",
    "latitude": "28.566209",
    "longitude": "77.217965"
  },
  {
    "stateName": "DELHI",
    "circleName": "Delhi Circle",
    "regionName": "DivReportingCircle",
    "divisionName": "New Delhi South Division",
    "officeName": "Sadiq Nagar SO",
    "pinCode": "110049",
    "officeType": "PO",
    "district": "South East",
    "latitude": "28.5571944",
    "longitude": "77.2226667"
  },
  {
    "stateName": "DELHI",
    "circleName": "Delhi Circle",
    "regionName": "DivReportingCircle",
    "divisionName": "New Delhi South Division",
    "officeName": "Sriniwaspuri SO",
    "pinCode": "110065",
    "officeType": "PO",
    "district": "SOUTH",
    "latitude": "28.5646944",
    "longitude": "77.2555833"
  },
  {
    "stateName": "DELHI",
    "circleName": "Delhi Circle",
    "regionName": "DivReportingCircle",
    "divisionName": "New Delhi South West Division",
    "officeName": "Anand Niketan SO",
    "pinCode": "110021",
    "officeType": "PO",
    "district": "NEW DELHI",
    "latitude": "28.5787222",
    "longitude": "77.1648889"
  },
  {
    "stateName": "DELHI",
    "circleName": "Delhi Circle",
    "regionName": "DivReportingCircle",
    "divisionName": "New Delhi South West Division",
    "officeName": "Arjungarh SO",
    "pinCode": "110047",
    "officeType": "PO",
    "district": "SOUTH",
    "latitude": "28.478918",
    "longitude": "77.120143"
  },
  {
    "stateName": "DELHI",
    "circleName": "Delhi Circle",
    "regionName": "DivReportingCircle",
    "divisionName": "New Delhi South West Division",
    "officeName": "IT Hauz Khas SO",
    "pinCode": "110016",
    "officeType": "PO",
    "district": "SOUTH",
    "latitude": "28.5428611",
    "longitude": "77.1960278"
  },
  {
    "stateName": "DELHI",
    "circleName": "Delhi Circle",
    "regionName": "DivReportingCircle",
    "divisionName": "New Delhi South West Division",
    "officeName": "Kidwai Nagar West SO",
    "pinCode": "110023",
    "officeType": "PO",
    "district": "NEW DELHI",
    "latitude": "28.5712778",
    "longitude": "77.2051667"
  },
  {
    "stateName": "DELHI",
    "circleName": "Delhi Circle",
    "regionName": "DivReportingCircle",
    "divisionName": "New Delhi South West Division",
    "officeName": "Kirby Place SO",
    "pinCode": "110010",
    "officeType": "PO",
    "district": "NEW DELHI",
    "latitude": "28.60688",
    "longitude": "77.129241"
  },
  {
    "stateName": "DELHI",
    "circleName": "Delhi Circle",
    "regionName": "DivReportingCircle",
    "divisionName": "New Delhi South West Division",
    "officeName": "Malcha Marg SO",
    "pinCode": "110021",
    "officeType": "PO",
    "district": "NEW DELHI",
    "latitude": "28.6040833",
    "longitude": "77.18725"
  },
  {
    "stateName": "DELHI",
    "circleName": "Delhi Circle",
    "regionName": "DivReportingCircle",
    "divisionName": "New Delhi South West Division",
    "officeName": "Mehrauli SO",
    "pinCode": "110030",
    "officeType": "PO",
    "district": "SOUTH",
    "latitude": "28.5176111",
    "longitude": "77.1793611"
  },
  {
    "stateName": "DELHI",
    "circleName": "Delhi Circle",
    "regionName": "DivReportingCircle",
    "divisionName": "New Delhi South West Division",
    "officeName": "Moti Bagh SO",
    "pinCode": "110021",
    "officeType": "PO",
    "district": "NEW DELHI",
    "latitude": "28.6139722",
    "longitude": "77.1256111"
  },
  {
    "stateName": "DELHI",
    "circleName": "Delhi Circle",
    "regionName": "DivReportingCircle",
    "divisionName": "New Delhi South West Division",
    "officeName": "Pinto Park SO",
    "pinCode": "110010",
    "officeType": "PO",
    "district": "NEW DELHI",
    "latitude": "28.5750833",
    "longitude": "77.0971667"
  },
  {
    "stateName": "DELHI",
    "circleName": "Delhi Circle",
    "regionName": "DivReportingCircle",
    "divisionName": "New Delhi South West Division",
    "officeName": "R K Puram Sect1 SO",
    "pinCode": "110022",
    "officeType": "PO",
    "district": "NEW DELHI",
    "latitude": "28.5615556",
    "longitude": "77.1792222"
  },
  {
    "stateName": "DELHI",
    "circleName": "Delhi Circle",
    "regionName": "DivReportingCircle",
    "divisionName": "New Delhi South West Division",
    "officeName": "R K Puram Sect12 SO",
    "pinCode": "110022",
    "officeType": "PO",
    "district": "NEW DELHI",
    "latitude": "28.5722222",
    "longitude": "77.1732778"
  },
  {
    "stateName": "DELHI",
    "circleName": "Delhi Circle",
    "regionName": "DivReportingCircle",
    "divisionName": "New Delhi South West Division",
    "officeName": "Station Road SO South West Delhi",
    "pinCode": "110010",
    "officeType": "PO",
    "district": "NEW DELHI",
    "latitude": "28.48",
    "longitude": "77.13"
  },
  {
    "stateName": "DELHI",
    "circleName": "Delhi Circle",
    "regionName": "DivReportingCircle",
    "divisionName": "New Delhi South West Division",
    "officeName": "Fatehpur Beri S.O",
    "pinCode": "110074",
    "officeType": "PO",
    "district": "SOUTH",
    "latitude": "28.50842",
    "longitude": "77.20918"
  },
  {
    "stateName": "DELHI",
    "circleName": "Delhi Circle",
    "regionName": "DivReportingCircle",
    "divisionName": "New Delhi West Division",
    "officeName": "Dwarka Sec-6 S.O",
    "pinCode": "110075",
    "officeType": "PO",
    "district": "SOUTH WEST",
    "latitude": "28.6068611",
    "longitude": "77.0415278"
  },
  {
    "stateName": "DELHI",
    "circleName": "Delhi Circle",
    "regionName": "DivReportingCircle",
    "divisionName": "New Delhi West Division",
    "officeName": "Ujwa S.O",
    "pinCode": "110073",
    "officeType": "PO",
    "district": "SOUTH WEST",
    "latitude": "28.5709444",
    "longitude": "76.9076944"
  },
  {
    "stateName": "DELHI",
    "circleName": "Delhi Circle",
    "regionName": "DivReportingCircle",
    "divisionName": "New Delhi West Division",
    "officeName": "Dhansa S.O",
    "pinCode": "110073",
    "officeType": "PO",
    "district": "SOUTH WEST",
    "latitude": "28.554485",
    "longitude": "76.865029"
  },
  {
    "stateName": "DELHI",
    "circleName": "Delhi Circle",
    "regionName": "DivReportingCircle",
    "divisionName": "New Delhi West Division",
    "officeName": "Gopal Nagar SO",
    "pinCode": "110043",
    "officeType": "PO",
    "district": "WEST",
    "latitude": "28.612297",
    "longitude": "76.968627"
  },
  {
    "stateName": "DELHI",
    "circleName": "Delhi Circle",
    "regionName": "DivReportingCircle",
    "divisionName": "New Delhi West Division",
    "officeName": "SHYAM VIHAR S.O",
    "pinCode": "110043",
    "officeType": "PO",
    "district": "WEST",
    "latitude": "28.609974",
    "longitude": "76.957645"
  },
  {
    "stateName": "DELHI",
    "circleName": "Delhi Circle",
    "regionName": "DivReportingCircle",
    "divisionName": "New Delhi West Division",
    "officeName": "Arjun Park PO",
    "pinCode": "110043",
    "officeType": "PO",
    "district": "WEST",
    "latitude": "28.622224",
    "longitude": "77.011825"
  },
  {
    "stateName": "DELHI",
    "circleName": "Delhi Circle",
    "regionName": "DivReportingCircle",
    "divisionName": "New Delhi West Division",
    "officeName": "Ashoka Park Extn. S.O",
    "pinCode": "110026",
    "officeType": "PO",
    "district": "WEST",
    "latitude": "28.6713889",
    "longitude": "77.1538333"
  },
  {
    "stateName": "DELHI",
    "circleName": "Delhi Circle",
    "regionName": "DivReportingCircle",
    "divisionName": "New Delhi West Division",
    "officeName": "Hari Nagar Dadb Block S.O",
    "pinCode": "110064",
    "officeType": "PO",
    "district": "WEST",
    "latitude": "28.6234444",
    "longitude": "77.1076111"
  },
  {
    "stateName": "DELHI",
    "circleName": "Delhi Circle",
    "regionName": "DivReportingCircle",
    "divisionName": "New Delhi West Division",
    "officeName": "Hari Nagar S.O (West Delhi)",
    "pinCode": "110064",
    "officeType": "PO",
    "district": "WEST",
    "latitude": "28.62486",
    "longitude": "77.110868"
  },
  {
    "stateName": "DELHI",
    "circleName": "Delhi Circle",
    "regionName": "DivReportingCircle",
    "divisionName": "New Delhi West Division",
    "officeName": "Janakpuri C 4 S.O",
    "pinCode": "110058",
    "officeType": "PO",
    "district": "WEST",
    "latitude": "28.6221111",
    "longitude": "77.0790556"
  },
  {
    "stateName": "DELHI",
    "circleName": "Delhi Circle",
    "regionName": "DivReportingCircle",
    "divisionName": "New Delhi West Division",
    "officeName": "Subhash Nagar West S.O",
    "pinCode": "110027",
    "officeType": "PO",
    "district": "WEST",
    "latitude": "28.6371111",
    "longitude": "77.1098889"
  },
  {
    "stateName": "DELHI",
    "circleName": "Delhi Circle",
    "regionName": "DivReportingCircle",
    "divisionName": "New Delhi West Division",
    "officeName": "Uttam Nagar S.O",
    "pinCode": "110059",
    "officeType": "PO",
    "district": "WEST",
    "latitude": "28.6270833",
    "longitude": "77.8844167"
  },
  {
    "stateName": "DELHI",
    "circleName": "Delhi Circle",
    "regionName": "DivReportingCircle",
    "divisionName": "New Delhi West Division",
    "officeName": "Zakhira S.O",
    "pinCode": "110015",
    "officeType": "PO",
    "district": "WEST",
    "latitude": "28.6659722",
    "longitude": "77.1647778"
  },
  {
    "stateName": "DELHI",
    "circleName": "Delhi Circle",
    "regionName": "DivReportingCircle",
    "divisionName": "New Delhi West Division",
    "officeName": "Moti Nagar S.O",
    "pinCode": "110015",
    "officeType": "PO",
    "district": "WEST",
    "latitude": "28.662345",
    "longitude": "77.141081"
  },
  {
    "stateName": "DELHI",
    "circleName": "Delhi Circle",
    "regionName": "DivReportingCircle",
    "divisionName": "New Delhi West Division",
    "officeName": "Mundka SO",
    "pinCode": "110041",
    "officeType": "PO",
    "district": "WEST",
    "latitude": "28.682314",
    "longitude": "77.034937"
  },
  {
    "stateName": "DELHI",
    "circleName": "Delhi Circle",
    "regionName": "DivReportingCircle",
    "divisionName": "New Delhi West Division",
    "officeName": "NDC TILAK NAGAR",
    "pinCode": "110018",
    "officeType": "PO",
    "district": "WEST",
    "latitude": "28.6498611",
    "longitude": "77.1306667"
  },
  {
    "stateName": "DELHI",
    "circleName": "Delhi Circle",
    "regionName": "DivReportingCircle",
    "divisionName": "Delhi North Division",
    "officeName": "Ashok Vihar HO",
    "pinCode": "110052",
    "officeType": "HO",
    "district": "NORTH",
    "latitude": "28.6933611",
    "longitude": "77.1713889"
  },
  {
    "stateName": "DELHI",
    "circleName": "Delhi Circle",
    "regionName": "DivReportingCircle",
    "divisionName": "Delhi East Division",
    "officeName": "Khajoori Khas BO",
    "pinCode": "110090",
    "officeType": "BO",
    "district": "NORTH EAST",
    "latitude": "28.69225",
    "longitude": "77.3042222"
  },
  {
    "stateName": "DELHI",
    "circleName": "Delhi Circle",
    "regionName": "DivReportingCircle",
    "divisionName": "Delhi North Division",
    "officeName": "Jagatpur BO",
    "pinCode": "110084",
    "officeType": "BO",
    "district": "NORTH",
    "latitude": "28.7572222",
    "longitude": "77.1977777"
  },
  {
    "stateName": "DELHI",
    "circleName": "Delhi Circle",
    "regionName": "DivReportingCircle",
    "divisionName": "Delhi North Division",
    "officeName": "Bakoli BO",
    "pinCode": "110036",
    "officeType": "BO",
    "district": "NORTH",
    "latitude": "28.7978055",
    "longitude": "77.13"
  },
  {
    "stateName": "DELHI",
    "circleName": "Delhi Circle",
    "regionName": "DivReportingCircle",
    "divisionName": "Delhi North Division",
    "officeName": "Hiranki BO",
    "pinCode": "110036",
    "officeType": "BO",
    "district": "NORTH",
    "latitude": "28.7978055",
    "longitude": "77.13"
  },
  {
    "stateName": "DELHI",
    "circleName": "Delhi Circle",
    "regionName": "DivReportingCircle",
    "divisionName": "Delhi North Division",
    "officeName": "Khampur BO",
    "pinCode": "110036",
    "officeType": "BO",
    "district": "NORTH",
    "latitude": "28.7978055",
    "longitude": "77.13"
  },
  {
    "stateName": "DELHI",
    "circleName": "Delhi Circle",
    "regionName": "DivReportingCircle",
    "divisionName": "Delhi North Division",
    "officeName": "Mukhmelpur BO",
    "pinCode": "110036",
    "officeType": "BO",
    "district": "NORTH",
    "latitude": "28.7978055",
    "longitude": "77.13"
  },
  {
    "stateName": "DELHI",
    "circleName": "Delhi Circle",
    "regionName": "DivReportingCircle",
    "divisionName": "Delhi North Division",
    "officeName": "Jat Khore BO",
    "pinCode": "110039",
    "officeType": "BO",
    "district": "NORTH",
    "latitude": "28.7996944",
    "longitude": "77.0380555"
  },
  {
    "stateName": "DELHI",
    "circleName": "Delhi Circle",
    "regionName": "DivReportingCircle",
    "divisionName": "Delhi North Division",
    "officeName": "Pooth Khurd BO",
    "pinCode": "110039",
    "officeType": "BO",
    "district": "NORTH",
    "latitude": "28.7996944",
    "longitude": "77.0380555"
  },
  {
    "stateName": "DELHI",
    "circleName": "Delhi Circle",
    "regionName": "DivReportingCircle",
    "divisionName": "Delhi North Division",
    "officeName": "Nizampur BO",
    "pinCode": "110081",
    "officeType": "BO",
    "district": "NORTH WEST",
    "latitude": "28.7349166",
    "longitude": "77.0055555"
  },
  {
    "stateName": "DELHI",
    "circleName": "Delhi Circle",
    "regionName": "DivReportingCircle",
    "divisionName": "New Delhi South Division",
    "officeName": "Jaitpur BO",
    "pinCode": "110044",
    "officeType": "BO",
    "district": "SOUTH",
    "latitude": "28.53",
    "longitude": "77.21"
  },
  {
    "stateName": "DELHI",
    "circleName": "Delhi Circle",
    "regionName": "DivReportingCircle",
    "divisionName": "New Delhi South Division",
    "officeName": "Ali BO",
    "pinCode": "110076",
    "officeType": "BO",
    "district": "SOUTH",
    "latitude": "28.52",
    "longitude": "77.31"
  },
  {
    "stateName": "DELHI",
    "circleName": "Delhi Circle",
    "regionName": "DivReportingCircle",
    "divisionName": "New Delhi South West Division",
    "officeName": "Dera BO",
    "pinCode": "110074",
    "officeType": "BO",
    "district": "SOUTH",
    "latitude": "28.5073055",
    "longitude": "77.1845555"
  },
  {
    "stateName": "DELHI",
    "circleName": "Delhi Circle",
    "regionName": "DivReportingCircle",
    "divisionName": "New Delhi South West Division",
    "officeName": "Satbari",
    "pinCode": "110074",
    "officeType": "BO",
    "district": "SOUTH",
    "latitude": "NA",
    "longitude": "NA"
  },
  {
    "stateName": "DELHI",
    "circleName": "Delhi Circle",
    "regionName": "DivReportingCircle",
    "divisionName": "New Delhi South West Division",
    "officeName": "Ghitorni BO",
    "pinCode": "110030",
    "officeType": "BO",
    "district": "SOUTH",
    "latitude": "28.5176111",
    "longitude": "77.1793611"
  },
  {
    "stateName": "DELHI",
    "circleName": "Delhi Circle",
    "regionName": "DivReportingCircle",
    "divisionName": "New Delhi South West Division",
    "officeName": "Lado Sarai BO",
    "pinCode": "110030",
    "officeType": "BO",
    "district": "SOUTH",
    "latitude": "28.52",
    "longitude": "77.18"
  },
  {
    "stateName": "DELHI",
    "circleName": "Delhi Circle",
    "regionName": "DivReportingCircle",
    "divisionName": "New Delhi West Division",
    "officeName": "Khaira B.O",
    "pinCode": "110043",
    "officeType": "BO",
    "district": "WEST",
    "latitude": "24.871535",
    "longitude": "86.207106"
  },
  {
    "stateName": "DELHI",
    "circleName": "Delhi Circle",
    "regionName": "DivReportingCircle",
    "divisionName": "New Delhi West Division",
    "officeName": "Kakrola B.O",
    "pinCode": "110078",
    "officeType": "BO",
    "district": "SOUTH WEST",
    "latitude": "28.598435",
    "longitude": "77.022021"
  },
  {
    "stateName": "DELHI",
    "circleName": "Delhi Circle",
    "regionName": "DivReportingCircle",
    "divisionName": "New Delhi West Division",
    "officeName": "Mitraon B.O",
    "pinCode": "110043",
    "officeType": "BO",
    "district": "WEST",
    "latitude": "28.605614",
    "longitude": "76.944141"
  },
  {
    "stateName": "DELHI",
    "circleName": "Delhi Circle",
    "regionName": "DivReportingCircle",
    "divisionName": "New Delhi West Division",
    "officeName": "Surehra B.O",
    "pinCode": "110043",
    "officeType": "BO",
    "district": "WEST",
    "latitude": "28.597122",
    "longitude": "76.93787"
  },
  {
    "stateName": "DELHI",
    "circleName": "Delhi Circle",
    "regionName": "DivReportingCircle",
    "divisionName": "New Delhi West Division",
    "officeName": "Galib Pur B.O",
    "pinCode": "110073",
    "officeType": "BO",
    "district": "SOUTH WEST",
    "latitude": "25.890679",
    "longitude": "83.367586"
  },
  {
    "stateName": "DELHI",
    "circleName": "Delhi Circle",
    "regionName": "DivReportingCircle",
    "divisionName": "New Delhi West Division",
    "officeName": "Raota B.O",
    "pinCode": "110073",
    "officeType": "BO",
    "district": "SOUTH WEST",
    "latitude": "25.030661",
    "longitude": "86.192975"
  },
  {
    "stateName": "DELHI",
    "circleName": "Delhi Circle",
    "regionName": "DivReportingCircle",
    "divisionName": "New Delhi West Division",
    "officeName": "Matiala B.O",
    "pinCode": "110059",
    "officeType": "BO",
    "district": "WEST",
    "latitude": "28.609409",
    "longitude": "77.054325"
  },
  {
    "stateName": "DELHI",
    "circleName": "Delhi Circle",
    "regionName": "DivReportingCircle",
    "divisionName": "New Delhi West Division",
    "officeName": "Nilothi B.O",
    "pinCode": "110041",
    "officeType": "BO",
    "district": "WEST",
    "latitude": "28.651181",
    "longitude": "77.059325"
  },
  {
    "stateName": "DELHI",
    "circleName": "Delhi Circle",
    "regionName": "DivReportingCircle",
    "divisionName": "New Delhi West Division",
    "officeName": "Ranhola B.O",
    "pinCode": "110041",
    "officeType": "BO",
    "district": "WEST",
    "latitude": "28.656128",
    "longitude": "77.040683"
  },
  {
    "stateName": "DELHI",
    "circleName": "Delhi Circle",
    "regionName": "DivReportingCircle",
    "divisionName": "New Delhi West Division",
    "officeName": "Neelwal BO",
    "pinCode": "110041",
    "officeType": "BO",
    "district": "WEST",
    "latitude": "28.666378",
    "longitude": "76.979654"
  },
  {
    "stateName": "DELHI",
    "circleName": "Delhi Circle",
    "regionName": "DivReportingCircle",
    "divisionName": "New Delhi West Division",
    "officeName": "Chaukhandi B.O",
    "pinCode": "110018",
    "officeType": "BO",
    "district": "WEST",
    "latitude": "24.867183",
    "longitude": "67.273615"
  },
  {
    "stateName": "DELHI",
    "circleName": "Delhi Circle",
    "regionName": "DivReportingCircle",
    "divisionName": "Delhi East Division",
    "officeName": "GTB Hospital SO",
    "pinCode": "110095",
    "officeType": "PO",
    "district": "SHAHDARA",
    "latitude": "28.6888056",
    "longitude": "77.3076944"
  },
  {
    "stateName": "DELHI",
    "circleName": "Delhi Circle",
    "regionName": "DivReportingCircle",
    "divisionName": "Delhi East Division",
    "officeName": "Man Sarovar Park SO",
    "pinCode": "110032",
    "officeType": "PO",
    "district": "SHAHDARA",
    "latitude": "28.6774167",
    "longitude": "77.2990833"
  },
  {
    "stateName": "DELHI",
    "circleName": "Delhi Circle",
    "regionName": "DivReportingCircle",
    "divisionName": "Delhi East Division",
    "officeName": "JHILMIL NDC",
    "pinCode": "110195",
    "officeType": "PO",
    "district": "SHAHDARA",
    "latitude": "28.673961",
    "longitude": "77.319696"
  },
  {
    "stateName": "DELHI",
    "circleName": "Delhi Circle",
    "regionName": "DivReportingCircle",
    "divisionName": "Delhi East Division",
    "officeName": "Kalyanvas SO",
    "pinCode": "110091",
    "officeType": "PO",
    "district": "EAST",
    "latitude": "28.6198333",
    "longitude": "77.3121111"
  },
  {
    "stateName": "DELHI",
    "circleName": "Delhi Circle",
    "regionName": "DivReportingCircle",
    "divisionName": "Delhi East Division",
    "officeName": "Laxmi Nagar SO East Delhi",
    "pinCode": "110092",
    "officeType": "PO",
    "district": "EAST",
    "latitude": "28.6921111",
    "longitude": "77.3042222"
  },
  {
    "stateName": "DELHI",
    "circleName": "Delhi Circle",
    "regionName": "DivReportingCircle",
    "divisionName": "Delhi East Division",
    "officeName": "Mandawali Fazalpur SO",
    "pinCode": "110092",
    "officeType": "PO",
    "district": "EAST",
    "latitude": "28.627",
    "longitude": "77.2063333"
  },
  {
    "stateName": "DELHI",
    "circleName": "Delhi Circle",
    "regionName": "DivReportingCircle",
    "divisionName": "Delhi East Division",
    "officeName": "Rajgarh Colony SO",
    "pinCode": "110031",
    "officeType": "PO",
    "district": "EAST",
    "latitude": "28.65925",
    "longitude": "77.2742222"
  },
  {
    "stateName": "DELHI",
    "circleName": "Delhi Circle",
    "regionName": "DivReportingCircle",
    "divisionName": "Delhi East Division",
    "officeName": "Shakarpur SO",
    "pinCode": "110092",
    "officeType": "PO",
    "district": "EAST",
    "latitude": "28.627",
    "longitude": "77.2850278"
  },
  {
    "stateName": "DELHI",
    "circleName": "Delhi Circle",
    "regionName": "DivReportingCircle",
    "divisionName": "Delhi East Division",
    "officeName": "Surajmal Vihar SO",
    "pinCode": "110092",
    "officeType": "PO",
    "district": "SHAHDARA",
    "latitude": "28.6617778",
    "longitude": "77.3059722"
  },
  {
    "stateName": "DELHI",
    "circleName": "Delhi Circle",
    "regionName": "DivReportingCircle",
    "divisionName": "Delhi North Division",
    "officeName": "Rana Pratap Bagh SO",
    "pinCode": "110007",
    "officeType": "PO",
    "district": "NORTH",
    "latitude": "28.6872778",
    "longitude": "77.1936111"
  },
  {
    "stateName": "DELHI",
    "circleName": "Delhi Circle",
    "regionName": "DivReportingCircle",
    "divisionName": "Delhi North Division",
    "officeName": "Timarpur SO",
    "pinCode": "110054",
    "officeType": "PO",
    "district": "CENTRAL",
    "latitude": "28.7032778",
    "longitude": "77.2228611"
  },
  {
    "stateName": "DELHI",
    "circleName": "Delhi Circle",
    "regionName": "DivReportingCircle",
    "divisionName": "Delhi North Division",
    "officeName": "Wazirabad Village SO",
    "pinCode": "110084",
    "officeType": "PO",
    "district": "CENTRAL",
    "latitude": "28.722239",
    "longitude": "77.221819"
  },
  {
    "stateName": "DELHI",
    "circleName": "Delhi Circle",
    "regionName": "DivReportingCircle",
    "divisionName": "Delhi GPO Division",
    "officeName": "DELHI GPO NDC",
    "pinCode": "110106",
    "officeType": "PO",
    "district": "NORTH",
    "latitude": "28.662289",
    "longitude": "77.235553"
  },
  {
    "stateName": "DELHI",
    "circleName": "Delhi Circle",
    "regionName": "DivReportingCircle",
    "divisionName": "Delhi North Division",
    "officeName": "Badli SO North West Delhi",
    "pinCode": "110042",
    "officeType": "PO",
    "district": "NORTH WEST",
    "latitude": "28.74469",
    "longitude": "77.145037"
  },
  {
    "stateName": "DELHI",
    "circleName": "Delhi Circle",
    "regionName": "DivReportingCircle",
    "divisionName": "Delhi North Division",
    "officeName": "Bawana SO",
    "pinCode": "110039",
    "officeType": "PO",
    "district": "NORTH",
    "latitude": "28.7996944",
    "longitude": "77.0380556"
  },
  {
    "stateName": "DELHI",
    "circleName": "Delhi Circle",
    "regionName": "DivReportingCircle",
    "divisionName": "Delhi North Division",
    "officeName": "C4 Keshav Puram SO North West Delhi",
    "pinCode": "110035",
    "officeType": "PO",
    "district": "NORTH WEST",
    "latitude": "28.691258",
    "longitude": "77.156291"
  },
  {
    "stateName": "DELHI",
    "circleName": "Delhi Circle",
    "regionName": "DivReportingCircle",
    "divisionName": "Delhi North Division",
    "officeName": "Maurya Enclave SO",
    "pinCode": "110034",
    "officeType": "PO",
    "district": "NORTH WEST",
    "latitude": "28.7046667",
    "longitude": "77.1447222"
  },
  {
    "stateName": "DELHI",
    "circleName": "Delhi Circle",
    "regionName": "DivReportingCircle",
    "divisionName": "Delhi North Division",
    "officeName": "Keshavpuram SO",
    "pinCode": "110035",
    "officeType": "PO",
    "district": "NORTH WEST",
    "latitude": "28.6921111",
    "longitude": "77.1578611"
  },
  {
    "stateName": "DELHI",
    "circleName": "Delhi Circle",
    "regionName": "DivReportingCircle",
    "divisionName": "Delhi North Division",
    "officeName": "Rohini Sector 15 SO",
    "pinCode": "110089",
    "officeType": "PO",
    "district": "NORTH WEST",
    "latitude": "28.7348056",
    "longitude": "77.1325"
  },
  {
    "stateName": "DELHI",
    "circleName": "Delhi Circle",
    "regionName": "DivReportingCircle",
    "divisionName": "Delhi North Division",
    "officeName": "Shakurbasti Rs SO",
    "pinCode": "110034",
    "officeType": "PO",
    "district": "NORTH WEST",
    "latitude": "28.6972778",
    "longitude": "77.1269444"
  },
  {
    "stateName": "DELHI",
    "circleName": "Delhi Circle",
    "regionName": "DivReportingCircle",
    "divisionName": "Delhi North Division",
    "officeName": "Sri Nagar Colony SO",
    "pinCode": "110034",
    "officeType": "PO",
    "district": "NORTH WEST",
    "latitude": "28.6819167",
    "longitude": "77.1366667"
  },
  {
    "stateName": "DELHI",
    "circleName": "Delhi Circle",
    "regionName": "DivReportingCircle",
    "divisionName": "Delhi North Division",
    "officeName": "Sannoth SO",
    "pinCode": "110040",
    "officeType": "PO",
    "district": "NORTH",
    "latitude": "28.812908",
    "longitude": "77.076225"
  },
  {
    "stateName": "DELHI",
    "circleName": "Delhi Circle",
    "regionName": "DivReportingCircle",
    "divisionName": "Delhi North Division",
    "officeName": "NARELA TOWN",
    "pinCode": "110040",
    "officeType": "PO",
    "district": "NORTH",
    "latitude": "28.84",
    "longitude": "77.08"
  },
  {
    "stateName": "DELHI",
    "circleName": "Delhi Circle",
    "regionName": "DivReportingCircle",
    "divisionName": "New Delhi Central Division",
    "officeName": "IPEstate SO",
    "pinCode": "110002",
    "officeType": "PO",
    "district": "CENTRAL",
    "latitude": "28.6274167",
    "longitude": "77.2435833"
  },
  {
    "stateName": "DELHI",
    "circleName": "Delhi Circle",
    "regionName": "DivReportingCircle",
    "divisionName": "New Delhi Central Division",
    "officeName": "Pandara Road SO",
    "pinCode": "110003",
    "officeType": "PO",
    "district": "NEW DELHI",
    "latitude": "28.6058889",
    "longitude": "77.2289722"
  },
  {
    "stateName": "DELHI",
    "circleName": "Delhi Circle",
    "regionName": "DivReportingCircle",
    "divisionName": "New Delhi Central Division",
    "officeName": "CAT EXTENSION COUNTER",
    "pinCode": "110001",
    "officeType": "PO",
    "district": "NEW DELHI",
    "latitude": "28.6174166",
    "longitude": "77.2129166"
  },
  {
    "stateName": "DELHI",
    "circleName": "Delhi Circle",
    "regionName": "DivReportingCircle",
    "divisionName": "New Delhi Central Division",
    "officeName": "NGT EXTENSION COUNTER",
    "pinCode": "110001",
    "officeType": "PO",
    "district": "NEW DELHI",
    "latitude": "28.61",
    "longitude": "77.29"
  },
  {
    "stateName": "DELHI",
    "circleName": "Delhi Circle",
    "regionName": "DivReportingCircle",
    "divisionName": "New Delhi Central Division",
    "officeName": "Rouse Avenue Extension Counter SO",
    "pinCode": "110002",
    "officeType": "PO",
    "district": "CENTRAL",
    "latitude": "28.6352",
    "longitude": "77.2469"
  },
  {
    "stateName": "DELHI",
    "circleName": "Delhi Circle",
    "regionName": "DivReportingCircle",
    "divisionName": "New Delhi Central Division",
    "officeName": "Parliament House SO",
    "pinCode": "110001",
    "officeType": "PO",
    "district": "NEW DELHI",
    "latitude": "28.6165",
    "longitude": "77.2009722"
  },
  {
    "stateName": "DELHI",
    "circleName": "Delhi Circle",
    "regionName": "DivReportingCircle",
    "divisionName": "New Delhi Central Division",
    "officeName": "Sansadiya Soudh SO",
    "pinCode": "110001",
    "officeType": "PO",
    "district": "NEW DELHI",
    "latitude": "28.6198611",
    "longitude": "77.2078333"
  },
  {
    "stateName": "DELHI",
    "circleName": "Delhi Circle",
    "regionName": "DivReportingCircle",
    "divisionName": "New Delhi Central Division",
    "officeName": "Udyog Bhawan SO",
    "pinCode": "110011",
    "officeType": "PO",
    "district": "NEW DELHI",
    "latitude": "28.6111111",
    "longitude": "77.21275"
  },
  {
    "stateName": "DELHI",
    "circleName": "Delhi Circle",
    "regionName": "DivReportingCircle",
    "divisionName": "New Delhi Central Division",
    "officeName": "Desh Bandhu Gupta Road SO",
    "pinCode": "110005",
    "officeType": "PO",
    "district": "CENTRAL",
    "latitude": "28.6535556",
    "longitude": "77.1918333"
  },
  {
    "stateName": "DELHI",
    "circleName": "Delhi Circle",
    "regionName": "DivReportingCircle",
    "divisionName": "New Delhi Central Division",
    "officeName": "Pahar Ganj SO",
    "pinCode": "110055",
    "officeType": "PO",
    "district": "CENTRAL",
    "latitude": "28.6401667",
    "longitude": "77.2129167"
  },
  {
    "stateName": "DELHI",
    "circleName": "Delhi Circle",
    "regionName": "DivReportingCircle",
    "divisionName": "New Delhi South Division",
    "officeName": "BSF Camp Tigri SO",
    "pinCode": "110080",
    "officeType": "PO",
    "district": "SOUTH",
    "latitude": "28.5105278",
    "longitude": "77.2424167"
  },
  {
    "stateName": "DELHI",
    "circleName": "Delhi Circle",
    "regionName": "DivReportingCircle",
    "divisionName": "New Delhi South Division",
    "officeName": "Dakshinpuri PhaseI SO",
    "pinCode": "110062",
    "officeType": "PO",
    "district": "SOUTH",
    "latitude": "28.5227222",
    "longitude": "77.2404444"
  },
  {
    "stateName": "DELHI",
    "circleName": "Delhi Circle",
    "regionName": "DivReportingCircle",
    "divisionName": "New Delhi South Division",
    "officeName": "Kailash Colony SO",
    "pinCode": "110048",
    "officeType": "PO",
    "district": "South East",
    "latitude": "28.5471667",
    "longitude": "77.2438056"
  },
  {
    "stateName": "DELHI",
    "circleName": "Delhi Circle",
    "regionName": "DivReportingCircle",
    "divisionName": "New Delhi South Division",
    "officeName": "Masjid Moth SO",
    "pinCode": "110048",
    "officeType": "PO",
    "district": "South East",
    "latitude": "28.5404722",
    "longitude": "77.2346667"
  },
  {
    "stateName": "DELHI",
    "circleName": "Delhi Circle",
    "regionName": "DivReportingCircle",
    "divisionName": "New Delhi South Division",
    "officeName": "Okhla Industrial Estate SO",
    "pinCode": "110020",
    "officeType": "PO",
    "district": "SOUTH",
    "latitude": "28.5521111",
    "longitude": "77.2686667"
  },
  {
    "stateName": "DELHI",
    "circleName": "Delhi Circle",
    "regionName": "DivReportingCircle",
    "divisionName": "New Delhi South Division",
    "officeName": "Sukhdev Vihar SO",
    "pinCode": "110025",
    "officeType": "PO",
    "district": "South East",
    "latitude": "28.5561944",
    "longitude": "77.2783056"
  },
  {
    "stateName": "DELHI",
    "circleName": "Delhi Circle",
    "regionName": "DivReportingCircle",
    "divisionName": "New Delhi South Division",
    "officeName": "Zakir Nagar SO",
    "pinCode": "110025",
    "officeType": "PO",
    "district": "South East",
    "latitude": "28.5671667",
    "longitude": "77.2787778"
  },
  {
    "stateName": "DELHI",
    "circleName": "Delhi Circle",
    "regionName": "DivReportingCircle",
    "divisionName": "New Delhi South Division",
    "officeName": "Meethapur SO",
    "pinCode": "110044",
    "officeType": "PO",
    "district": "South East",
    "latitude": "28.501147",
    "longitude": "77.319318"
  },
  {
    "stateName": "DELHI",
    "circleName": "Delhi Circle",
    "regionName": "DivReportingCircle",
    "divisionName": "New Delhi South Division",
    "officeName": "KALKAJI NDC",
    "pinCode": "110119",
    "officeType": "PO",
    "district": "South East",
    "latitude": "28.542802",
    "longitude": "77.257506"
  },
  {
    "stateName": "DELHI",
    "circleName": "Delhi Circle",
    "regionName": "DivReportingCircle",
    "divisionName": "New Delhi South Division",
    "officeName": "Aliganj SO South Delhi",
    "pinCode": "110003",
    "officeType": "PO",
    "district": "South East",
    "latitude": "28.59",
    "longitude": "77.22"
  },
  {
    "stateName": "DELHI",
    "circleName": "Delhi Circle",
    "regionName": "DivReportingCircle",
    "divisionName": "New Delhi South Division",
    "officeName": "Dargah Sharif SO",
    "pinCode": "110013",
    "officeType": "PO",
    "district": "South East",
    "latitude": "28.5912222",
    "longitude": "77.2423333"
  },
  {
    "stateName": "DELHI",
    "circleName": "Delhi Circle",
    "regionName": "DivReportingCircle",
    "divisionName": "New Delhi South Division",
    "officeName": "East Of Kailash SO",
    "pinCode": "110065",
    "officeType": "PO",
    "district": "South East",
    "latitude": "28.5579444",
    "longitude": "77.2459722"
  },
  {
    "stateName": "DELHI",
    "circleName": "Delhi Circle",
    "regionName": "DivReportingCircle",
    "divisionName": "New Delhi South Division",
    "officeName": "Kasturba Nagar SO South Delhi",
    "pinCode": "110003",
    "officeType": "PO",
    "district": "South East",
    "latitude": "28.576544",
    "longitude": "77.224654"
  },
  {
    "stateName": "DELHI",
    "circleName": "Delhi Circle",
    "regionName": "DivReportingCircle",
    "divisionName": "New Delhi South Division",
    "officeName": "Krishna Market SO",
    "pinCode": "110024",
    "officeType": "PO",
    "district": "South East",
    "latitude": "28.5740556",
    "longitude": "77.242309"
  },
  {
    "stateName": "DELHI",
    "circleName": "Delhi Circle",
    "regionName": "DivReportingCircle",
    "divisionName": "New Delhi South Division",
    "officeName": "Lajpat Nagar South Delhi SO",
    "pinCode": "110024",
    "officeType": "PO",
    "district": "SOUTH",
    "latitude": "28.5381667",
    "longitude": "77.2150278"
  },
  {
    "stateName": "DELHI",
    "circleName": "Delhi Circle",
    "regionName": "DivReportingCircle",
    "divisionName": "New Delhi South Division",
    "officeName": "Panchsheel Enclave SO",
    "pinCode": "110017",
    "officeType": "PO",
    "district": "SOUTH",
    "latitude": "28.544134",
    "longitude": "77.228442"
  },
  {
    "stateName": "DELHI",
    "circleName": "Delhi Circle",
    "regionName": "DivReportingCircle",
    "divisionName": "New Delhi South Division",
    "officeName": "Pushp Vihar SO",
    "pinCode": "110017",
    "officeType": "PO",
    "district": "SOUTH",
    "latitude": "28.5245556",
    "longitude": "77.2204444"
  },
  {
    "stateName": "DELHI",
    "circleName": "Delhi Circle",
    "regionName": "DivReportingCircle",
    "divisionName": "New Delhi South Division",
    "officeName": "Sant Nagar SO South Delhi",
    "pinCode": "110065",
    "officeType": "PO",
    "district": "South East",
    "latitude": "28.554003",
    "longitude": "77.24903"
  },
  {
    "stateName": "DELHI",
    "circleName": "Delhi Circle",
    "regionName": "DivReportingCircle",
    "divisionName": "New Delhi South West Division",
    "officeName": "CVD SO",
    "pinCode": "110010",
    "officeType": "PO",
    "district": "NEW DELHI",
    "latitude": "28.5988889",
    "longitude": "77.1085833"
  },
  {
    "stateName": "DELHI",
    "circleName": "Delhi Circle",
    "regionName": "DivReportingCircle",
    "divisionName": "New Delhi South West Division",
    "officeName": "COD SO South West Delhi",
    "pinCode": "110010",
    "officeType": "PO",
    "district": "NEW DELHI",
    "latitude": "25.59",
    "longitude": "77.15"
  },
  {
    "stateName": "DELHI",
    "circleName": "Delhi Circle",
    "regionName": "DivReportingCircle",
    "divisionName": "New Delhi South West Division",
    "officeName": "Dhaula Kuan SO",
    "pinCode": "110010",
    "officeType": "PO",
    "district": "NEW DELHI",
    "latitude": "28.6014167",
    "longitude": "77.1620278"
  },
  {
    "stateName": "DELHI",
    "circleName": "Delhi Circle",
    "regionName": "DivReportingCircle",
    "divisionName": "New Delhi South West Division",
    "officeName": "Green Park Market SO",
    "pinCode": "110016",
    "officeType": "PO",
    "district": "SOUTH",
    "latitude": "28.5558611",
    "longitude": "77.2021389"
  },
  {
    "stateName": "DELHI",
    "circleName": "Delhi Circle",
    "regionName": "DivReportingCircle",
    "divisionName": "New Delhi South West Division",
    "officeName": "Ignou SO",
    "pinCode": "110068",
    "officeType": "PO",
    "district": "SOUTH",
    "latitude": "28.5012222",
    "longitude": "77.2003056"
  },
  {
    "stateName": "DELHI",
    "circleName": "Delhi Circle",
    "regionName": "DivReportingCircle",
    "divisionName": "New Delhi South West Division",
    "officeName": "Palam Airport SO",
    "pinCode": "110037",
    "officeType": "PO",
    "district": "NEW DELHI",
    "latitude": "28.5745556",
    "longitude": "77.0975556"
  },
  {
    "stateName": "DELHI",
    "circleName": "Delhi Circle",
    "regionName": "DivReportingCircle",
    "divisionName": "New Delhi South West Division",
    "officeName": "R K Puram Sect5 SO",
    "pinCode": "110022",
    "officeType": "PO",
    "district": "NEW DELHI",
    "latitude": "28.562224",
    "longitude": "77.17243"
  },
  {
    "stateName": "DELHI",
    "circleName": "Delhi Circle",
    "regionName": "DivReportingCircle",
    "divisionName": "New Delhi South West Division",
    "officeName": "Technology Bhawan SO",
    "pinCode": "110016",
    "officeType": "PO",
    "district": "SOUTH",
    "latitude": "28.5373056",
    "longitude": "77.1907222"
  },
  {
    "stateName": "DELHI",
    "circleName": "Delhi Circle",
    "regionName": "DivReportingCircle",
    "divisionName": "New Delhi South West Division",
    "officeName": "Vasant Kunj PktA SO",
    "pinCode": "110070",
    "officeType": "PO",
    "district": "NEW DELHI",
    "latitude": "28.5139722",
    "longitude": "77.1655"
  },
  {
    "stateName": "DELHI",
    "circleName": "Delhi Circle",
    "regionName": "DivReportingCircle",
    "divisionName": "New Delhi South West Division",
    "officeName": "Aya Nagar S.O",
    "pinCode": "110047",
    "officeType": "PO",
    "district": "SOUTH",
    "latitude": "28.4759",
    "longitude": "77.13153"
  },
  {
    "stateName": "DELHI",
    "circleName": "Delhi Circle",
    "regionName": "DivReportingCircle",
    "divisionName": "New Delhi West Division",
    "officeName": "CRPF Jharoda Kalan S.O",
    "pinCode": "110072",
    "officeType": "PO",
    "district": "SOUTH WEST",
    "latitude": "28.6359167",
    "longitude": "77.9605833"
  },
  {
    "stateName": "DELHI",
    "circleName": "Delhi Circle",
    "regionName": "DivReportingCircle",
    "divisionName": "New Delhi West Division",
    "officeName": "Mayapuri Shopping Centre S.O",
    "pinCode": "110064",
    "officeType": "PO",
    "district": "WEST",
    "latitude": "28.614756",
    "longitude": "71.11292"
  },
  {
    "stateName": "DELHI",
    "circleName": "Delhi Circle",
    "regionName": "DivReportingCircle",
    "divisionName": "New Delhi West Division",
    "officeName": "Raj Nagar   II S.O",
    "pinCode": "110077",
    "officeType": "PO",
    "district": "SOUTH WEST",
    "latitude": "28.5748056",
    "longitude": "77.0787222"
  },
  {
    "stateName": "DELHI",
    "circleName": "Delhi Circle",
    "regionName": "DivReportingCircle",
    "divisionName": "New Delhi West Division",
    "officeName": "Mansarover Garden S.O",
    "pinCode": "110015",
    "officeType": "PO",
    "district": "WEST",
    "latitude": "28.6485278",
    "longitude": "77.1365"
  },
  {
    "stateName": "DELHI",
    "circleName": "Delhi Circle",
    "regionName": "DivReportingCircle",
    "divisionName": "New Delhi West Division",
    "officeName": "Paschim Vihar S.O",
    "pinCode": "110063",
    "officeType": "PO",
    "district": "WEST",
    "latitude": "28.6705278",
    "longitude": "77.1022222"
  },
  {
    "stateName": "DELHI",
    "circleName": "Delhi Circle",
    "regionName": "DivReportingCircle",
    "divisionName": "New Delhi West Division",
    "officeName": "Rajouri Garden J 6 S.O",
    "pinCode": "110027",
    "officeType": "PO",
    "district": "WEST",
    "latitude": "28.6427222",
    "longitude": "77.12325"
  },
  {
    "stateName": "DELHI",
    "circleName": "Delhi Circle",
    "regionName": "DivReportingCircle",
    "divisionName": "New Delhi West Division",
    "officeName": "Tagore Garden S.O",
    "pinCode": "110027",
    "officeType": "PO",
    "district": "WEST",
    "latitude": "28.6467222",
    "longitude": "77.1124722"
  },
  {
    "stateName": "DELHI",
    "circleName": "Delhi Circle",
    "regionName": "DivReportingCircle",
    "divisionName": "New Delhi West Division",
    "officeName": "Vikas Puri S.O",
    "pinCode": "110018",
    "officeType": "PO",
    "district": "WEST",
    "latitude": "28.6396389",
    "longitude": "77.0761111"
  },
  {
    "stateName": "DELHI",
    "circleName": "Delhi Circle",
    "regionName": "DivReportingCircle",
    "divisionName": "Delhi GPO Division",
    "officeName": "Delhi GPO",
    "pinCode": "110006",
    "officeType": "HO",
    "district": "NORTH",
    "latitude": "28.662197",
    "longitude": "77.235397"
  },
  {
    "stateName": "DELHI",
    "circleName": "Delhi Circle",
    "regionName": "DivReportingCircle",
    "divisionName": "Delhi East Division",
    "officeName": "Dayalpur BO",
    "pinCode": "110094",
    "officeType": "BO",
    "district": "NORTH EAST",
    "latitude": "28.69225",
    "longitude": "77.3042222"
  },
  {
    "stateName": "DELHI",
    "circleName": "Delhi Circle",
    "regionName": "DivReportingCircle",
    "divisionName": "Delhi East Division",
    "officeName": "Mandoli Saboli BO",
    "pinCode": "110093",
    "officeType": "BO",
    "district": "NORTH EAST",
    "latitude": "28.702185",
    "longitude": "77.30501"
  },
  {
    "stateName": "DELHI",
    "circleName": "Delhi Circle",
    "regionName": "DivReportingCircle",
    "divisionName": "Delhi East Division",
    "officeName": "New Usmanpur BO",
    "pinCode": "110053",
    "officeType": "BO",
    "district": "NORTH EAST",
    "latitude": "28.69225",
    "longitude": "77.3042222"
  },
  {
    "stateName": "DELHI",
    "circleName": "Delhi Circle",
    "regionName": "DivReportingCircle",
    "divisionName": "Delhi North Division",
    "officeName": "Hareveli BO",
    "pinCode": "110039",
    "officeType": "BO",
    "district": "NORTH",
    "latitude": "28.7996944",
    "longitude": "77.0380555"
  },
  {
    "stateName": "DELHI",
    "circleName": "Delhi Circle",
    "regionName": "DivReportingCircle",
    "divisionName": "Delhi North Division",
    "officeName": "Karala BO",
    "pinCode": "110081",
    "officeType": "BO",
    "district": "NORTH WEST",
    "latitude": "28.7349166",
    "longitude": "77.0055555"
  },
  {
    "stateName": "DELHI",
    "circleName": "Delhi Circle",
    "regionName": "DivReportingCircle",
    "divisionName": "Delhi North Division",
    "officeName": "Pehlad Pur BO",
    "pinCode": "110042",
    "officeType": "BO",
    "district": "NORTH",
    "latitude": "28.72775",
    "longitude": "77.1636111"
  },
  {
    "stateName": "DELHI",
    "circleName": "Delhi Circle",
    "regionName": "DivReportingCircle",
    "divisionName": "Delhi North Division",
    "officeName": "Mukundpur Village",
    "pinCode": "110042",
    "officeType": "BO",
    "district": "NORTH",
    "latitude": "28.744111",
    "longitude": "77.145"
  },
  {
    "stateName": "DELHI",
    "circleName": "Delhi Circle",
    "regionName": "DivReportingCircle",
    "divisionName": "New Delhi South Division",
    "officeName": "Deoli BO",
    "pinCode": "110080",
    "officeType": "BO",
    "district": "SOUTH",
    "latitude": "28.5",
    "longitude": "77.23"
  },
  {
    "stateName": "DELHI",
    "circleName": "Delhi Circle",
    "regionName": "DivReportingCircle",
    "divisionName": "New Delhi South West Division",
    "officeName": "Rajokari BO",
    "pinCode": "110038",
    "officeType": "BO",
    "district": "NEW DELHI",
    "latitude": "28.52",
    "longitude": "77.09"
  },
  {
    "stateName": "DELHI",
    "circleName": "Delhi Circle",
    "regionName": "DivReportingCircle",
    "divisionName": "New Delhi South West Division",
    "officeName": "Jaunapur BO",
    "pinCode": "110047",
    "officeType": "BO",
    "district": "SOUTH",
    "latitude": "28.46",
    "longitude": "77.15"
  },
  {
    "stateName": "DELHI",
    "circleName": "Delhi Circle",
    "regionName": "DivReportingCircle",
    "divisionName": "New Delhi South West Division",
    "officeName": "Sultanpur BO",
    "pinCode": "110030",
    "officeType": "BO",
    "district": "SOUTH",
    "latitude": "28.5176111",
    "longitude": "77.1793611"
  },
  {
    "stateName": "DELHI",
    "circleName": "Delhi Circle",
    "regionName": "DivReportingCircle",
    "divisionName": "New Delhi West Division",
    "officeName": "Badusarai B.O",
    "pinCode": "110071",
    "officeType": "BO",
    "district": "SOUTH WEST",
    "latitude": "28.529595",
    "longitude": "76.986468"
  },
  {
    "stateName": "DELHI",
    "circleName": "Delhi Circle",
    "regionName": "DivReportingCircle",
    "divisionName": "New Delhi West Division",
    "officeName": "Kangan Heri B.O",
    "pinCode": "110071",
    "officeType": "BO",
    "district": "SOUTH WEST",
    "latitude": "28.546186",
    "longitude": "76.990187"
  },
  {
    "stateName": "DELHI",
    "circleName": "Delhi Circle",
    "regionName": "DivReportingCircle",
    "divisionName": "New Delhi West Division",
    "officeName": "Baprola B.O",
    "pinCode": "110043",
    "officeType": "BO",
    "district": "WEST",
    "latitude": "28.639783",
    "longitude": "77.008001"
  },
  {
    "stateName": "DELHI",
    "circleName": "Delhi Circle",
    "regionName": "DivReportingCircle",
    "divisionName": "New Delhi West Division",
    "officeName": "Daulatpur B.O",
    "pinCode": "110043",
    "officeType": "BO",
    "district": "WEST",
    "latitude": "31.774749",
    "longitude": "75.998545"
  },
  {
    "stateName": "DELHI",
    "circleName": "Delhi Circle",
    "regionName": "DivReportingCircle",
    "divisionName": "New Delhi West Division",
    "officeName": "Papravat B.O",
    "pinCode": "110043",
    "officeType": "BO",
    "district": "WEST",
    "latitude": "28.58032",
    "longitude": "76.978203"
  },
  {
    "stateName": "DELHI",
    "circleName": "Delhi Circle",
    "regionName": "DivReportingCircle",
    "divisionName": "New Delhi West Division",
    "officeName": "Rewla Khanpur B.O",
    "pinCode": "110043",
    "officeType": "BO",
    "district": "WEST",
    "latitude": "28.564726",
    "longitude": "76.981441"
  },
  {
    "stateName": "DELHI",
    "circleName": "Delhi Circle",
    "regionName": "DivReportingCircle",
    "divisionName": "New Delhi West Division",
    "officeName": "Indira Park B.O",
    "pinCode": "110045",
    "officeType": "BO",
    "district": "SOUTH WEST",
    "latitude": "17.413655",
    "longitude": "78.483833"
  },
  {
    "stateName": "DELHI",
    "circleName": "Delhi Circle",
    "regionName": "DivReportingCircle",
    "divisionName": "New Delhi West Division",
    "officeName": "Barthal B.O",
    "pinCode": "110077",
    "officeType": "BO",
    "district": "SOUTH WEST",
    "latitude": "28.542804",
    "longitude": "77.049144"
  },
  {
    "stateName": "DELHI",
    "circleName": "Delhi Circle",
    "regionName": "DivReportingCircle",
    "divisionName": "New Delhi West Division",
    "officeName": "Malik Pur B.O",
    "pinCode": "110073",
    "officeType": "BO",
    "district": "SOUTH WEST",
    "latitude": "32.643914",
    "longitude": "74.046903"
  },
  {
    "stateName": "DELHI",
    "circleName": "Delhi Circle",
    "regionName": "DivReportingCircle",
    "divisionName": "New Delhi West Division",
    "officeName": "Quazipur B.O",
    "pinCode": "110073",
    "officeType": "BO",
    "district": "SOUTH WEST",
    "latitude": "25.26516",
    "longitude": "80.69649"
  },
  {
    "stateName": "DELHI",
    "circleName": "Delhi Circle",
    "regionName": "DivReportingCircle",
    "divisionName": "New Delhi West Division",
    "officeName": "Nangloi   II B.O",
    "pinCode": "110041",
    "officeType": "BO",
    "district": "WEST",
    "latitude": "28.682407",
    "longitude": "77.064631"
  },
  {
    "stateName": "DELHI",
    "circleName": "Delhi Circle",
    "regionName": "DivReportingCircle",
    "divisionName": "New Delhi West Division",
    "officeName": "Tikri Kalan B.O",
    "pinCode": "110041",
    "officeType": "BO",
    "district": "WEST",
    "latitude": "28.682346",
    "longitude": "76.967187"
  },
  {
    "stateName": "DELHI",
    "circleName": "Delhi Circle",
    "regionName": "DivReportingCircle",
    "divisionName": "New Delhi West Division",
    "officeName": "Jawala Heri B.O",
    "pinCode": "110063",
    "officeType": "BO",
    "district": "WEST",
    "latitude": "28.668712",
    "longitude": "77.102909"
  },
  {
    "stateName": "DELHI",
    "circleName": "Delhi Circle",
    "regionName": "DivReportingCircle",
    "divisionName": "Delhi North Division",
    "officeName": "Delhi Sadar Bazar SO",
    "pinCode": "110006",
    "officeType": "PO",
    "district": "NORTH",
    "latitude": "28.6579722",
    "longitude": "77.2144444"
  },
  {
    "stateName": "DELHI",
    "circleName": "Delhi Circle",
    "regionName": "DivReportingCircle",
    "divisionName": "Delhi North Division",
    "officeName": "District Courts SO North Delhi",
    "pinCode": "110054",
    "officeType": "PO",
    "district": "CENTRAL",
    "latitude": "28.667094",
    "longitude": "77.216534"
  },
  {
    "stateName": "DELHI",
    "circleName": "Delhi Circle",
    "regionName": "DivReportingCircle",
    "divisionName": "Delhi North Division",
    "officeName": "Shakti Nagar SO North Delhi",
    "pinCode": "110007",
    "officeType": "PO",
    "district": "NORTH",
    "latitude": "28.67993",
    "longitude": "77.194021"
  },
  {
    "stateName": "DELHI",
    "circleName": "Delhi Circle",
    "regionName": "DivReportingCircle",
    "divisionName": "Delhi North Division",
    "officeName": "DrMukerjee Nagar SO",
    "pinCode": "110009",
    "officeType": "PO",
    "district": "NORTH",
    "latitude": "28.7108611",
    "longitude": "77.2158333"
  },
  {
    "stateName": "DELHI",
    "circleName": "Delhi Circle",
    "regionName": "DivReportingCircle",
    "divisionName": "Delhi North Division",
    "officeName": "Haiderpur SO",
    "pinCode": "110088",
    "officeType": "PO",
    "district": "NORTH",
    "latitude": "28.7246667",
    "longitude": "77.1469444"
  },
  {
    "stateName": "DELHI",
    "circleName": "Delhi Circle",
    "regionName": "DivReportingCircle",
    "divisionName": "Delhi North Division",
    "officeName": "Khera Kalan SO",
    "pinCode": "110082",
    "officeType": "PO",
    "district": "NORTH",
    "latitude": "28.7721667",
    "longitude": "77.119"
  },
  {
    "stateName": "DELHI",
    "circleName": "Delhi Circle",
    "regionName": "DivReportingCircle",
    "divisionName": "Delhi North Division",
    "officeName": "Mangolpuri N Block SO",
    "pinCode": "110083",
    "officeType": "PO",
    "district": "NORTH WEST",
    "latitude": "28.6936667",
    "longitude": "77.09"
  },
  {
    "stateName": "DELHI",
    "circleName": "Delhi Circle",
    "regionName": "DivReportingCircle",
    "divisionName": "Delhi North Division",
    "officeName": "Nirankari Colony SO",
    "pinCode": "110009",
    "officeType": "PO",
    "district": "NORTH",
    "latitude": "28.71525",
    "longitude": "77.2044444"
  },
  {
    "stateName": "DELHI",
    "circleName": "Delhi Circle",
    "regionName": "DivReportingCircle",
    "divisionName": "Delhi North Division",
    "officeName": "Power House SO",
    "pinCode": "110035",
    "officeType": "PO",
    "district": "NORTH WEST",
    "latitude": "28.6738333",
    "longitude": "77.1445833"
  },
  {
    "stateName": "DELHI",
    "circleName": "Delhi Circle",
    "regionName": "DivReportingCircle",
    "divisionName": "Delhi North Division",
    "officeName": "Rohini sec11 SO",
    "pinCode": "110085",
    "officeType": "PO",
    "district": "NORTH WEST",
    "latitude": "28.728826",
    "longitude": "77.106806"
  },
  {
    "stateName": "DELHI",
    "circleName": "Delhi Circle",
    "regionName": "DivReportingCircle",
    "divisionName": "Delhi North Division",
    "officeName": "Samai Pur SO",
    "pinCode": "110042",
    "officeType": "PO",
    "district": "NORTH",
    "latitude": "28.7441111",
    "longitude": "77.145"
  },
  {
    "stateName": "DELHI",
    "circleName": "Delhi Circle",
    "regionName": "DivReportingCircle",
    "divisionName": "Delhi North Division",
    "officeName": "Shalimar Bagh SO North West Delhi",
    "pinCode": "110088",
    "officeType": "PO",
    "district": "NORTH",
    "latitude": "28.6933611",
    "longitude": "77.1713889"
  },
  {
    "stateName": "DELHI",
    "circleName": "Delhi Circle",
    "regionName": "DivReportingCircle",
    "divisionName": "Delhi North Division",
    "officeName": "Sultanpuri B Block SO",
    "pinCode": "110086",
    "officeType": "PO",
    "district": "NORTH WEST",
    "latitude": "28.6963611",
    "longitude": "77.0764167"
  },
  {
    "stateName": "DELHI",
    "circleName": "Delhi Circle",
    "regionName": "DivReportingCircle",
    "divisionName": "Delhi North Division",
    "officeName": "Sultanpuri C Block SO",
    "pinCode": "110086",
    "officeType": "PO",
    "district": "NORTH WEST",
    "latitude": "28.7016111",
    "longitude": "77.0797222"
  },
  {
    "stateName": "DELHI",
    "circleName": "Delhi Circle",
    "regionName": "DivReportingCircle",
    "divisionName": "Delhi North Division",
    "officeName": "Sultanpuri F Block SO",
    "pinCode": "110086",
    "officeType": "PO",
    "district": "NORTH WEST",
    "latitude": "28.6900278",
    "longitude": "77.0685833"
  },
  {
    "stateName": "DELHI",
    "circleName": "Delhi Circle",
    "regionName": "DivReportingCircle",
    "divisionName": "New Delhi Central Division",
    "officeName": "Baroda House SO",
    "pinCode": "110001",
    "officeType": "PO",
    "district": "NEW DELHI",
    "latitude": "28.6174167",
    "longitude": "77.2129167"
  },
  {
    "stateName": "DELHI",
    "circleName": "Delhi Circle",
    "regionName": "DivReportingCircle",
    "divisionName": "New Delhi Central Division",
    "officeName": "Jama Masjid SO",
    "pinCode": "110006",
    "officeType": "PO",
    "district": "NORTH",
    "latitude": "28.6502222",
    "longitude": "77.2322778"
  },
  {
    "stateName": "DELHI",
    "circleName": "Delhi Circle",
    "regionName": "DivReportingCircle",
    "divisionName": "New Delhi Central Division",
    "officeName": "Civic Centre PO",
    "pinCode": "110002",
    "officeType": "PO",
    "district": "CENTRAL",
    "latitude": "28.6411",
    "longitude": "77.2272"
  },
  {
    "stateName": "DELHI",
    "circleName": "Delhi Circle",
    "regionName": "DivReportingCircle",
    "divisionName": "New Delhi Central Division",
    "officeName": "Connaught Place SO",
    "pinCode": "110001",
    "officeType": "PO",
    "district": "NEW DELHI",
    "latitude": "28.6331389",
    "longitude": "77.2179444"
  },
  {
    "stateName": "DELHI",
    "circleName": "Delhi Circle",
    "regionName": "DivReportingCircle",
    "divisionName": "New Delhi Central Division",
    "officeName": "Janpath SO",
    "pinCode": "110001",
    "officeType": "PO",
    "district": "NEW DELHI",
    "latitude": "28.6433611",
    "longitude": "77.2009167"
  },
  {
    "stateName": "DELHI",
    "circleName": "Delhi Circle",
    "regionName": "DivReportingCircle",
    "divisionName": "New Delhi Central Division",
    "officeName": "Lady Harding Medical College SO",
    "pinCode": "110001",
    "officeType": "PO",
    "district": "NEW DELHI",
    "latitude": "28.6348889",
    "longitude": "77.2145556"
  },
  {
    "stateName": "DELHI",
    "circleName": "Delhi Circle",
    "regionName": "DivReportingCircle",
    "divisionName": "New Delhi Central Division",
    "officeName": "Union Public Service Commission SO",
    "pinCode": "110069",
    "officeType": "PO",
    "district": "NEW DELHI",
    "latitude": "28.6225833",
    "longitude": "77.2127222"
  },
  {
    "stateName": "DELHI",
    "circleName": "Delhi Circle",
    "regionName": "DivReportingCircle",
    "divisionName": "New Delhi Central Division",
    "officeName": "AKMarket SO",
    "pinCode": "110055",
    "officeType": "PO",
    "district": "CENTRAL",
    "latitude": "28.6448889",
    "longitude": "77.2020556"
  },
  {
    "stateName": "DELHI",
    "circleName": "Delhi Circle",
    "regionName": "DivReportingCircle",
    "divisionName": "New Delhi Central Division",
    "officeName": "Anand Parbat SO",
    "pinCode": "110005",
    "officeType": "PO",
    "district": "CENTRAL",
    "latitude": "28.65875",
    "longitude": "77.1773333"
  },
  {
    "stateName": "DELHI",
    "circleName": "Delhi Circle",
    "regionName": "DivReportingCircle",
    "divisionName": "New Delhi South Division",
    "officeName": "Alaknanda SO",
    "pinCode": "110019",
    "officeType": "PO",
    "district": "South East",
    "latitude": "28.5256389",
    "longitude": "77.2541667"
  },
  {
    "stateName": "DELHI",
    "circleName": "Delhi Circle",
    "regionName": "DivReportingCircle",
    "divisionName": "New Delhi South Division",
    "officeName": "C R R I SO South Delhi",
    "pinCode": "110020",
    "officeType": "PO",
    "district": "South East",
    "latitude": "28.551707",
    "longitude": "77.275149"
  },
  {
    "stateName": "DELHI",
    "circleName": "Delhi Circle",
    "regionName": "DivReportingCircle",
    "divisionName": "New Delhi South Division",
    "officeName": "Chittranjan Park SO",
    "pinCode": "110019",
    "officeType": "PO",
    "district": "South East",
    "latitude": "28.5403056",
    "longitude": "77.2486667"
  },
  {
    "stateName": "DELHI",
    "circleName": "Delhi Circle",
    "regionName": "DivReportingCircle",
    "divisionName": "New Delhi South Division",
    "officeName": "Dakshinpuri PhaseIII SO",
    "pinCode": "110062",
    "officeType": "PO",
    "district": "SOUTH",
    "latitude": "28.5155278",
    "longitude": "77.2374722"
  },
  {
    "stateName": "DELHI",
    "circleName": "Delhi Circle",
    "regionName": "DivReportingCircle",
    "divisionName": "New Delhi South Division",
    "officeName": "Dr Ambedkar Nagar SO South Delhi",
    "pinCode": "110062",
    "officeType": "PO",
    "district": "SOUTH",
    "latitude": "28.51",
    "longitude": "77.23"
  },
  {
    "stateName": "DELHI",
    "circleName": "Delhi Circle",
    "regionName": "DivReportingCircle",
    "divisionName": "New Delhi South Division",
    "officeName": "F F C Okhla SO",
    "pinCode": "110020",
    "officeType": "PO",
    "district": "South East",
    "latitude": "28.5577222",
    "longitude": "77.2648333"
  },
  {
    "stateName": "DELHI",
    "circleName": "Delhi Circle",
    "regionName": "DivReportingCircle",
    "divisionName": "New Delhi South Division",
    "officeName": "Khanpur SO South Delhi",
    "pinCode": "110080",
    "officeType": "PO",
    "district": "SOUTH",
    "latitude": "28.515085",
    "longitude": "77.225752"
  },
  {
    "stateName": "DELHI",
    "circleName": "Delhi Circle",
    "regionName": "DivReportingCircle",
    "divisionName": "New Delhi South Division",
    "officeName": "Talimabad SO",
    "pinCode": "110080",
    "officeType": "PO",
    "district": "SOUTH",
    "latitude": "28.5037778",
    "longitude": "77.2499444"
  },
  {
    "stateName": "DELHI",
    "circleName": "Delhi Circle",
    "regionName": "DivReportingCircle",
    "divisionName": "New Delhi South Division",
    "officeName": "Distt Court Complex Saket SO",
    "pinCode": "110017",
    "officeType": "PO",
    "district": "SOUTH",
    "latitude": "28.528842",
    "longitude": "77.222557"
  },
  {
    "stateName": "DELHI",
    "circleName": "Delhi Circle",
    "regionName": "DivReportingCircle",
    "divisionName": "New Delhi South Division",
    "officeName": "East Of Kailash PhaseI SO",
    "pinCode": "110065",
    "officeType": "PO",
    "district": "South East",
    "latitude": "28.5593611",
    "longitude": "77.2568056"
  },
  {
    "stateName": "DELHI",
    "circleName": "Delhi Circle",
    "regionName": "DivReportingCircle",
    "divisionName": "New Delhi South Division",
    "officeName": "Golf Links SO",
    "pinCode": "110003",
    "officeType": "PO",
    "district": "South East",
    "latitude": "28.58725",
    "longitude": "77.2300833"
  },
  {
    "stateName": "DELHI",
    "circleName": "Delhi Circle",
    "regionName": "DivReportingCircle",
    "divisionName": "New Delhi South Division",
    "officeName": "MMTCSTC Colony SO",
    "pinCode": "110017",
    "officeType": "PO",
    "district": "SOUTH",
    "latitude": "28.5346389",
    "longitude": "77.2016944"
  },
  {
    "stateName": "DELHI",
    "circleName": "Delhi Circle",
    "regionName": "DivReportingCircle",
    "divisionName": "New Delhi South Division",
    "officeName": "Saket SO South Delhi",
    "pinCode": "110017",
    "officeType": "PO",
    "district": "SOUTH",
    "latitude": "28.522984",
    "longitude": "77.21452"
  },
  {
    "stateName": "DELHI",
    "circleName": "Delhi Circle",
    "regionName": "DivReportingCircle",
    "divisionName": "New Delhi South Division",
    "officeName": "LAJPAT NAGAR NDC",
    "pinCode": "110124",
    "officeType": "PO",
    "district": "SOUTH",
    "latitude": "28.567906",
    "longitude": "77.241397"
  },
  {
    "stateName": "DELHI",
    "circleName": "Delhi Circle",
    "regionName": "DivReportingCircle",
    "divisionName": "New Delhi South West Division",
    "officeName": "A F Rajokari SO",
    "pinCode": "110038",
    "officeType": "PO",
    "district": "NEW DELHI",
    "latitude": "28.5180566",
    "longitude": "77.1016084"
  },
  {
    "stateName": "DELHI",
    "circleName": "Delhi Circle",
    "regionName": "DivReportingCircle",
    "divisionName": "New Delhi South West Division",
    "officeName": "Chanakya Puri SO",
    "pinCode": "110021",
    "officeType": "PO",
    "district": "NEW DELHI",
    "latitude": "28.583723",
    "longitude": "77.190064"
  },
  {
    "stateName": "DELHI",
    "circleName": "Delhi Circle",
    "regionName": "DivReportingCircle",
    "divisionName": "New Delhi South West Division",
    "officeName": "IGI Airport SO",
    "pinCode": "110037",
    "officeType": "PO",
    "district": "NEW DELHI",
    "latitude": "28.5556389",
    "longitude": "77.0845556"
  },
  {
    "stateName": "DELHI",
    "circleName": "Delhi Circle",
    "regionName": "DivReportingCircle",
    "divisionName": "New Delhi South West Division",
    "officeName": "Nanak Pura SO",
    "pinCode": "110021",
    "officeType": "PO",
    "district": "NEW DELHI",
    "latitude": "28.5807778",
    "longitude": "77.1727222"
  },
  {
    "stateName": "DELHI",
    "circleName": "Delhi Circle",
    "regionName": "DivReportingCircle",
    "divisionName": "New Delhi South West Division",
    "officeName": "Netaji Nagar SO South West Delhi",
    "pinCode": "110023",
    "officeType": "PO",
    "district": "NEW DELHI",
    "latitude": "28.58",
    "longitude": "77.19"
  },
  {
    "stateName": "DELHI",
    "circleName": "Delhi Circle",
    "regionName": "DivReportingCircle",
    "divisionName": "New Delhi South West Division",
    "officeName": "Paryavaran Complex SO",
    "pinCode": "110030",
    "officeType": "PO",
    "district": "SOUTH",
    "latitude": "28.5174444",
    "longitude": "77.2055278"
  },
  {
    "stateName": "DELHI",
    "circleName": "Delhi Circle",
    "regionName": "DivReportingCircle",
    "divisionName": "New Delhi South West Division",
    "officeName": "R K Puram Main SO",
    "pinCode": "110066",
    "officeType": "PO",
    "district": "NEW DELHI",
    "latitude": "28.567136",
    "longitude": "77.185239"
  },
  {
    "stateName": "DELHI",
    "circleName": "Delhi Circle",
    "regionName": "DivReportingCircle",
    "divisionName": "New Delhi South West Division",
    "officeName": "R K Puram Sect7 SO",
    "pinCode": "110022",
    "officeType": "PO",
    "district": "NEW DELHI",
    "latitude": "28.5701944",
    "longitude": "77.1713056"
  },
  {
    "stateName": "DELHI",
    "circleName": "Delhi Circle",
    "regionName": "DivReportingCircle",
    "divisionName": "New Delhi South West Division",
    "officeName": "R K Puram Sect8 SO",
    "pinCode": "110022",
    "officeType": "PO",
    "district": "NEW DELHI",
    "latitude": "28.5706389",
    "longitude": "77.1755"
  },
  {
    "stateName": "DELHI",
    "circleName": "Delhi Circle",
    "regionName": "DivReportingCircle",
    "divisionName": "New Delhi South West Division",
    "officeName": "R K Puram Sector  6 Postal SB SO",
    "pinCode": "110022",
    "officeType": "PO",
    "district": "NEW DELHI",
    "latitude": "28.56",
    "longitude": "77.16"
  },
  {
    "stateName": "DELHI",
    "circleName": "Delhi Circle",
    "regionName": "DivReportingCircle",
    "divisionName": "New Delhi South West Division",
    "officeName": "R K Puram West SO",
    "pinCode": "110066",
    "officeType": "PO",
    "district": "NEW DELHI",
    "latitude": "28.5653056",
    "longitude": "77.17975"
  },
  {
    "stateName": "DELHI",
    "circleName": "Delhi Circle",
    "regionName": "DivReportingCircle",
    "divisionName": "New Delhi South West Division",
    "officeName": "Safdarjung Enclave SO",
    "pinCode": "110029",
    "officeType": "PO",
    "district": "SOUTH",
    "latitude": "28.5664228",
    "longitude": "77.1998703"
  },
  {
    "stateName": "DELHI",
    "circleName": "Delhi Circle",
    "regionName": "DivReportingCircle",
    "divisionName": "New Delhi South West Division",
    "officeName": "South Delhi Campus SO",
    "pinCode": "110021",
    "officeType": "PO",
    "district": "NEW DELHI",
    "latitude": "28.5829722",
    "longitude": "77.1615"
  },
  {
    "stateName": "DELHI",
    "circleName": "Delhi Circle",
    "regionName": "DivReportingCircle",
    "divisionName": "New Delhi South West Division",
    "officeName": "Vasant Vihar1 SO",
    "pinCode": "110057",
    "officeType": "PO",
    "district": "NEW DELHI",
    "latitude": "28.568",
    "longitude": "77.1594167"
  },
  {
    "stateName": "DELHI",
    "circleName": "Delhi Circle",
    "regionName": "DivReportingCircle",
    "divisionName": "New Delhi West Division",
    "officeName": "Maya Puri S.O",
    "pinCode": "110064",
    "officeType": "PO",
    "district": "WEST",
    "latitude": "28.6317778",
    "longitude": "77.1259167"
  },
  {
    "stateName": "DELHI",
    "circleName": "Delhi Circle",
    "regionName": "DivReportingCircle",
    "divisionName": "New Delhi West Division",
    "officeName": "NDC DWARKA SEC-6",
    "pinCode": "110075",
    "officeType": "PO",
    "district": "SOUTH WEST",
    "latitude": "28.6068611",
    "longitude": "77.0415278"
  },
  {
    "stateName": "DELHI",
    "circleName": "Delhi Circle",
    "regionName": "DivReportingCircle",
    "divisionName": "New Delhi West Division",
    "officeName": "Ashok Nagar S.O (West Delhi)",
    "pinCode": "110018",
    "officeType": "PO",
    "district": "WEST",
    "latitude": "28.636587",
    "longitude": "77.094466"
  },
  {
    "stateName": "DELHI",
    "circleName": "Delhi Circle",
    "regionName": "DivReportingCircle",
    "divisionName": "New Delhi West Division",
    "officeName": "Chand Nagar S.O",
    "pinCode": "110018",
    "officeType": "PO",
    "district": "WEST",
    "latitude": "28.6463611",
    "longitude": "77.0990556"
  },
  {
    "stateName": "DELHI",
    "circleName": "Delhi Circle",
    "regionName": "DivReportingCircle",
    "divisionName": "New Delhi West Division",
    "officeName": "D. K. Mohan Garden S.O",
    "pinCode": "110059",
    "officeType": "PO",
    "district": "WEST",
    "latitude": "28.6215",
    "longitude": "77.0415278"
  },
  {
    "stateName": "DELHI",
    "circleName": "Delhi Circle",
    "regionName": "DivReportingCircle",
    "divisionName": "New Delhi West Division",
    "officeName": "D.E.S.U. Colony S.O",
    "pinCode": "110058",
    "officeType": "PO",
    "district": "WEST",
    "latitude": "28.6115",
    "longitude": "77.0970833"
  },
  {
    "stateName": "DELHI",
    "circleName": "Delhi Circle",
    "regionName": "DivReportingCircle",
    "divisionName": "New Delhi West Division",
    "officeName": "Fateh Nagar S.O",
    "pinCode": "110018",
    "officeType": "PO",
    "district": "WEST",
    "latitude": "28.6333056",
    "longitude": "77.0996944"
  },
  {
    "stateName": "DELHI",
    "circleName": "Delhi Circle",
    "regionName": "DivReportingCircle",
    "divisionName": "New Delhi West Division",
    "officeName": "Janakpuri A 3 S.O",
    "pinCode": "110058",
    "officeType": "PO",
    "district": "WEST",
    "latitude": "28.6241111",
    "longitude": "77.0793611"
  },
  {
    "stateName": "DELHI",
    "circleName": "Delhi Circle",
    "regionName": "DivReportingCircle",
    "divisionName": "New Delhi West Division",
    "officeName": "Janakpuri B 1 S.O",
    "pinCode": "110058",
    "officeType": "PO",
    "district": "WEST",
    "latitude": "28.630065",
    "longitude": "77.091207"
  },
  {
    "stateName": "DELHI",
    "circleName": "Delhi Circle",
    "regionName": "DivReportingCircle",
    "divisionName": "New Delhi West Division",
    "officeName": "Janta Market S.O",
    "pinCode": "110027",
    "officeType": "PO",
    "district": "WEST",
    "latitude": "28.6426944",
    "longitude": "77.1232222"
  },
  {
    "stateName": "DELHI",
    "circleName": "Delhi Circle",
    "regionName": "DivReportingCircle",
    "divisionName": "New Delhi West Division",
    "officeName": "Karam Pura S.O",
    "pinCode": "110015",
    "officeType": "PO",
    "district": "WEST",
    "latitude": "28.6645556",
    "longitude": "77.0786389"
  },
  {
    "stateName": "DELHI",
    "circleName": "Delhi Circle",
    "regionName": "DivReportingCircle",
    "divisionName": "New Delhi West Division",
    "officeName": "Khyala Phase    I S.O",
    "pinCode": "110018",
    "officeType": "PO",
    "district": "WEST",
    "latitude": "28.6576111",
    "longitude": "77.0999444"
  },
  {
    "stateName": "DELHI",
    "circleName": "Delhi Circle",
    "regionName": "DivReportingCircle",
    "divisionName": "New Delhi West Division",
    "officeName": "Mahabir Nagar S.O",
    "pinCode": "110018",
    "officeType": "PO",
    "district": "WEST",
    "latitude": "28.6346389",
    "longitude": "77.0860833"
  },
  {
    "stateName": "DELHI",
    "circleName": "Delhi Circle",
    "regionName": "DivReportingCircle",
    "divisionName": "New Delhi West Division",
    "officeName": "Shivaji Park S.O (West Delhi)",
    "pinCode": "110026",
    "officeType": "PO",
    "district": "WEST",
    "latitude": "28.673232",
    "longitude": "77.131978"
  },
  {
    "stateName": "DELHI",
    "circleName": "Delhi Circle",
    "regionName": "DivReportingCircle",
    "divisionName": "New Delhi West Division",
    "officeName": "Subhash Nagar S.O (West Delhi)",
    "pinCode": "110027",
    "officeType": "PO",
    "district": "WEST",
    "latitude": "28.640446",
    "longitude": "77.104918"
  },
  {
    "stateName": "DELHI",
    "circleName": "Delhi Circle",
    "regionName": "DivReportingCircle",
    "divisionName": "New Delhi West Division",
    "officeName": "Tilak Nagar East S.O",
    "pinCode": "110018",
    "officeType": "PO",
    "district": "WEST",
    "latitude": "28.6396667",
    "longitude": "77.0963333"
  },
  {
    "stateName": "DELHI",
    "circleName": "Delhi Circle",
    "regionName": "DivReportingCircle",
    "divisionName": "New Delhi West Division",
    "officeName": "Tilak Nagar S.O (West Delhi)",
    "pinCode": "110018",
    "officeType": "PO",
    "district": "WEST",
    "latitude": "28.6498611",
    "longitude": "77.1306667"
  },
  {
    "stateName": "DELHI",
    "circleName": "Delhi Circle",
    "regionName": "DivReportingCircle",
    "divisionName": "New Delhi West Division",
    "officeName": "Kunwar Singh Nagar PO",
    "pinCode": "110041",
    "officeType": "PO",
    "district": "WEST",
    "latitude": "28.666829",
    "longitude": "77.049004"
  },
  {
    "stateName": "DELHI",
    "circleName": "Delhi Circle",
    "regionName": "DivReportingCircle",
    "divisionName": "Delhi East Division",
    "officeName": "Krishna Nagar HO",
    "pinCode": "110051",
    "officeType": "HO",
    "district": "SHAHDARA",
    "latitude": "28.645733",
    "longitude": "77.2997737"
  },
  {
    "stateName": "DELHI",
    "circleName": "Delhi Circle",
    "regionName": "DivReportingCircle",
    "divisionName": "New Delhi Central Division",
    "officeName": "Indraprastha HO",
    "pinCode": "110002",
    "officeType": "HO",
    "district": "CENTRAL",
    "latitude": "28.6317778",
    "longitude": "77.24025"
  },
  {
    "stateName": "DELHI",
    "circleName": "Delhi Circle",
    "regionName": "DivReportingCircle",
    "divisionName": "New Delhi GPO Division",
    "officeName": "New Delhi GPO",
    "pinCode": "110001",
    "officeType": "HO",
    "district": "NEW DELHI",
    "latitude": "28.626806",
    "longitude": "77.20663"
  },
  {
    "stateName": "DELHI",
    "circleName": "Delhi Circle",
    "regionName": "DivReportingCircle",
    "divisionName": "New Delhi South Division",
    "officeName": "Kalkaji HO",
    "pinCode": "110019",
    "officeType": "HO",
    "district": "SOUTH",
    "latitude": "28.5431667",
    "longitude": "77.2576667"
  },
  {
    "stateName": "DELHI",
    "circleName": "Delhi Circle",
    "regionName": "DivReportingCircle",
    "divisionName": "New Delhi South Division",
    "officeName": "Lodi Road HO",
    "pinCode": "110003",
    "officeType": "HO",
    "district": "SOUTH",
    "latitude": "28.5896111",
    "longitude": "77.2191944"
  },
  {
    "stateName": "DELHI",
    "circleName": "Delhi Circle",
    "regionName": "DivReportingCircle",
    "divisionName": "New Delhi South West Division",
    "officeName": "Sarojini Nagar HO",
    "pinCode": "110023",
    "officeType": "HO",
    "district": "NEW DELHI",
    "latitude": "28.575476",
    "longitude": "77.199648"
  },
  {
    "stateName": "DELHI",
    "circleName": "Delhi Circle",
    "regionName": "DivReportingCircle",
    "divisionName": "New Delhi West Division",
    "officeName": "Naraina Industrial Estate H.O",
    "pinCode": "110028",
    "officeType": "HO",
    "district": "NEW DELHI",
    "latitude": "28.632141",
    "longitude": "77.138852"
  },
  {
    "stateName": "DELHI",
    "circleName": "Delhi Circle",
    "regionName": "DivReportingCircle",
    "divisionName": "New Delhi West Division",
    "officeName": "Ramesh Nagar H.O",
    "pinCode": "110015",
    "officeType": "HO",
    "district": "WEST",
    "latitude": "28.6498611",
    "longitude": "77.1306667"
  },
  {
    "stateName": "DELHI",
    "circleName": "Delhi Circle",
    "regionName": "DivReportingCircle",
    "divisionName": "Delhi East Division",
    "officeName": "Babarpur SO North East Delhi",
    "pinCode": "110032",
    "officeType": "PO",
    "district": "SHAHDARA",
    "latitude": "28.6739166",
    "longitude": "77.3198333"
  },
  {
    "stateName": "DELHI",
    "circleName": "Delhi Circle",
    "regionName": "DivReportingCircle",
    "divisionName": "Delhi East Division",
    "officeName": "Karawal Nagar SO",
    "pinCode": "110090",
    "officeType": "PO",
    "district": "NORTH EAST",
    "latitude": "28.7259444",
    "longitude": "77.2726389"
  },
  {
    "stateName": "DELHI",
    "circleName": "Delhi Circle",
    "regionName": "DivReportingCircle",
    "divisionName": "Delhi East Division",
    "officeName": "Maujpur SO",
    "pinCode": "110053",
    "officeType": "PO",
    "district": "NORTH EAST",
    "latitude": "28.69225",
    "longitude": "77.2705556"
  },
  {
    "stateName": "DELHI",
    "circleName": "Delhi Circle",
    "regionName": "DivReportingCircle",
    "divisionName": "Delhi East Division",
    "officeName": "Old Seemapuri SO",
    "pinCode": "110095",
    "officeType": "PO",
    "district": "SHAHDARA",
    "latitude": "28.6805556",
    "longitude": "77.3303333"
  },
  {
    "stateName": "DELHI",
    "circleName": "Delhi Circle",
    "regionName": "DivReportingCircle",
    "divisionName": "Delhi East Division",
    "officeName": "Shaheed Bhagat Singh Colony SO",
    "pinCode": "110090",
    "officeType": "PO",
    "district": "NORTH EAST",
    "latitude": "28.6739166",
    "longitude": "77.3198333"
  },
  {
    "stateName": "DELHI",
    "circleName": "Delhi Circle",
    "regionName": "DivReportingCircle",
    "divisionName": "Delhi East Division",
    "officeName": "Shivaji Park SO East Delhi",
    "pinCode": "110032",
    "officeType": "PO",
    "district": "SHAHDARA",
    "latitude": "28.6739166",
    "longitude": "77.3198333"
  },
  {
    "stateName": "DELHI",
    "circleName": "Delhi Circle",
    "regionName": "DivReportingCircle",
    "divisionName": "Delhi East Division",
    "officeName": "Gandhi Nagar Bazar SO",
    "pinCode": "110031",
    "officeType": "PO",
    "district": "SHAHDARA",
    "latitude": "28.6606111",
    "longitude": "77.2664167"
  },
  {
    "stateName": "DELHI",
    "circleName": "Delhi Circle",
    "regionName": "DivReportingCircle",
    "divisionName": "Delhi East Division",
    "officeName": "Mayur Vihar PhI SO",
    "pinCode": "110091",
    "officeType": "PO",
    "district": "EAST",
    "latitude": "28.607",
    "longitude": "77.2945833"
  },
  {
    "stateName": "DELHI",
    "circleName": "Delhi Circle",
    "regionName": "DivReportingCircle",
    "divisionName": "Delhi East Division",
    "officeName": "Ram Nagar SO East Delhi",
    "pinCode": "110051",
    "officeType": "PO",
    "district": "EAST",
    "latitude": "28.65925",
    "longitude": "77.2742222"
  },
  {
    "stateName": "DELHI",
    "circleName": "Delhi Circle",
    "regionName": "DivReportingCircle",
    "divisionName": "Delhi East Division",
    "officeName": "Vasundhra Enclave SO",
    "pinCode": "110096",
    "officeType": "PO",
    "district": "EAST",
    "latitude": "28.6221944",
    "longitude": "77.3167222"
  },
  {
    "stateName": "DELHI",
    "circleName": "Delhi Circle",
    "regionName": "DivReportingCircle",
    "divisionName": "Delhi East Division",
    "officeName": "Laxmi Nagar Extension SO",
    "pinCode": "110092",
    "officeType": "PO",
    "district": "EAST",
    "latitude": "28.6921111",
    "longitude": "77.3042222"
  },
  {
    "stateName": "DELHI",
    "circleName": "Delhi Circle",
    "regionName": "DivReportingCircle",
    "divisionName": "Delhi East Division",
    "officeName": "Jhilmil Tahirpur BO",
    "pinCode": "110095",
    "officeType": "BO",
    "district": "SHAHDARA",
    "latitude": "28.68254",
    "longitude": "77.31315"
  },
  {
    "stateName": "DELHI",
    "circleName": "Delhi Circle",
    "regionName": "DivReportingCircle",
    "divisionName": "Delhi East Division",
    "officeName": "Johripur BO",
    "pinCode": "110094",
    "officeType": "BO",
    "district": "NORTH EAST",
    "latitude": "28.69225",
    "longitude": "77.3042222"
  },
  {
    "stateName": "DELHI",
    "circleName": "Delhi Circle",
    "regionName": "DivReportingCircle",
    "divisionName": "Delhi East Division",
    "officeName": "Sabhapur BO",
    "pinCode": "110090",
    "officeType": "BO",
    "district": "NORTH EAST",
    "latitude": "NA",
    "longitude": "NA"
  },
  {
    "stateName": "DELHI",
    "circleName": "Delhi Circle",
    "regionName": "DivReportingCircle",
    "divisionName": "Delhi North Division",
    "officeName": "Jharoda Majraa BO",
    "pinCode": "110084",
    "officeType": "BO",
    "district": "NORTH",
    "latitude": "28.7572222",
    "longitude": "77.1977777"
  },
  {
    "stateName": "DELHI",
    "circleName": "Delhi Circle",
    "regionName": "DivReportingCircle",
    "divisionName": "Delhi North Division",
    "officeName": "Barwala BO",
    "pinCode": "110039",
    "officeType": "BO",
    "district": "NORTH",
    "latitude": "28.7996944",
    "longitude": "77.0380555"
  },
  {
    "stateName": "DELHI",
    "circleName": "Delhi Circle",
    "regionName": "DivReportingCircle",
    "divisionName": "Delhi North Division",
    "officeName": "Nangal Thakran BO",
    "pinCode": "110039",
    "officeType": "BO",
    "district": "NORTH",
    "latitude": "28.7996944",
    "longitude": "77.0380555"
  },
  {
    "stateName": "DELHI",
    "circleName": "Delhi Circle",
    "regionName": "DivReportingCircle",
    "divisionName": "Delhi North Division",
    "officeName": "Qutabagarh BO",
    "pinCode": "110039",
    "officeType": "BO",
    "district": "NORTH WEST",
    "latitude": "28.7996944",
    "longitude": "77.0380555"
  },
  {
    "stateName": "DELHI",
    "circleName": "Delhi Circle",
    "regionName": "DivReportingCircle",
    "divisionName": "Delhi North Division",
    "officeName": "Bhalaswa BO",
    "pinCode": "110033",
    "officeType": "BO",
    "district": "NORTH",
    "latitude": "28.72775",
    "longitude": "77.1636111"
  },
  {
    "stateName": "DELHI",
    "circleName": "Delhi Circle",
    "regionName": "DivReportingCircle",
    "divisionName": "Delhi North Division",
    "officeName": "Punjab Khor BO",
    "pinCode": "110081",
    "officeType": "BO",
    "district": "NORTH WEST",
    "latitude": "28.7349166",
    "longitude": "77.0055555"
  },
  {
    "stateName": "DELHI",
    "circleName": "Delhi Circle",
    "regionName": "DivReportingCircle",
    "divisionName": "Delhi North Division",
    "officeName": "Naya Bans BO",
    "pinCode": "110082",
    "officeType": "BO",
    "district": "NORTH",
    "latitude": "28.7721666",
    "longitude": "77.119"
  },
  {
    "stateName": "DELHI",
    "circleName": "Delhi Circle",
    "regionName": "DivReportingCircle",
    "divisionName": "Delhi North Division",
    "officeName": "Bankner BO",
    "pinCode": "110040",
    "officeType": "BO",
    "district": "NORTH",
    "latitude": "28.8508055",
    "longitude": "77.0880555"
  },
  {
    "stateName": "DELHI",
    "circleName": "Delhi Circle",
    "regionName": "DivReportingCircle",
    "divisionName": "Delhi North Division",
    "officeName": "Kanya Gurukul BO",
    "pinCode": "110040",
    "officeType": "BO",
    "district": "NORTH",
    "latitude": "28.8508055",
    "longitude": "77.0880555"
  },
  {
    "stateName": "DELHI",
    "circleName": "Delhi Circle",
    "regionName": "DivReportingCircle",
    "divisionName": "Delhi North Division",
    "officeName": "Singhu BO",
    "pinCode": "110040",
    "officeType": "BO",
    "district": "NORTH",
    "latitude": "28.8508055",
    "longitude": "77.0880555"
  },
  {
    "stateName": "DELHI",
    "circleName": "Delhi Circle",
    "regionName": "DivReportingCircle",
    "divisionName": "Delhi North Division",
    "officeName": "Rampura BO",
    "pinCode": "110035",
    "officeType": "BO",
    "district": "NORTH WEST",
    "latitude": "28.6921111",
    "longitude": "77.1578611"
  },
  {
    "stateName": "DELHI",
    "circleName": "Delhi Circle",
    "regionName": "DivReportingCircle",
    "divisionName": "Delhi North Division",
    "officeName": "Siraspur BO",
    "pinCode": "110042",
    "officeType": "BO",
    "district": "NORTH",
    "latitude": "28.7441111",
    "longitude": "77.145"
  },
  {
    "stateName": "DELHI",
    "circleName": "Delhi Circle",
    "regionName": "DivReportingCircle",
    "divisionName": "Delhi North Division",
    "officeName": "Begumpur BO",
    "pinCode": "110086",
    "officeType": "BO",
    "district": "NORTH WEST",
    "latitude": "28.7016111",
    "longitude": "77.0797222"
  },
  {
    "stateName": "DELHI",
    "circleName": "Delhi Circle",
    "regionName": "DivReportingCircle",
    "divisionName": "New Delhi South Division",
    "officeName": "Village Tugalkabad BO",
    "pinCode": "110044",
    "officeType": "BO",
    "district": "SOUTH",
    "latitude": "28.51",
    "longitude": "77.26"
  },
  {
    "stateName": "DELHI",
    "circleName": "Delhi Circle",
    "regionName": "DivReportingCircle",
    "divisionName": "New Delhi South Division",
    "officeName": "Pul Pahladpur BO",
    "pinCode": "110044",
    "officeType": "BO",
    "district": "SOUTH",
    "latitude": "28.5",
    "longitude": "77.3"
  },
  {
    "stateName": "DELHI",
    "circleName": "Delhi Circle",
    "regionName": "DivReportingCircle",
    "divisionName": "New Delhi South Division",
    "officeName": "Jeevan Nagar BO",
    "pinCode": "110014",
    "officeType": "BO",
    "district": "SOUTH",
    "latitude": "28.58",
    "longitude": "77.26"
  },
  {
    "stateName": "DELHI",
    "circleName": "Delhi Circle",
    "regionName": "DivReportingCircle",
    "divisionName": "New Delhi South West Division",
    "officeName": "Mandi BO",
    "pinCode": "110047",
    "officeType": "BO",
    "district": "SOUTH",
    "latitude": "28.44",
    "longitude": "77.14"
  },
  {
    "stateName": "DELHI",
    "circleName": "Delhi Circle",
    "regionName": "DivReportingCircle",
    "divisionName": "New Delhi South West Division",
    "officeName": "CSKM School BO",
    "pinCode": "110074",
    "officeType": "BO",
    "district": "SOUTH",
    "latitude": "28.5073055",
    "longitude": "77.1845555"
  },
  {
    "stateName": "DELHI",
    "circleName": "Delhi Circle",
    "regionName": "DivReportingCircle",
    "divisionName": "New Delhi South West Division",
    "officeName": "BHATI VILLAGE BO",
    "pinCode": "110074",
    "officeType": "BO",
    "district": "SOUTH",
    "latitude": "28.5073055",
    "longitude": "77.1845555"
  },
  {
    "stateName": "DELHI",
    "circleName": "Delhi Circle",
    "regionName": "DivReportingCircle",
    "divisionName": "New Delhi South West Division",
    "officeName": "Mahipalpur BO",
    "pinCode": "110037",
    "officeType": "BO",
    "district": "NEW DELHI",
    "latitude": "28.54",
    "longitude": "77.12"
  },
  {
    "stateName": "DELHI",
    "circleName": "Delhi Circle",
    "regionName": "DivReportingCircle",
    "divisionName": "New Delhi South West Division",
    "officeName": "Masood Pur BO",
    "pinCode": "110070",
    "officeType": "BO",
    "district": "NEW DELHI",
    "latitude": "28.52",
    "longitude": "77.15"
  },
  {
    "stateName": "DELHI",
    "circleName": "Delhi Circle",
    "regionName": "DivReportingCircle",
    "divisionName": "New Delhi West Division",
    "officeName": "Jharoda Kalan B.O",
    "pinCode": "110072",
    "officeType": "BO",
    "district": "SOUTH WEST",
    "latitude": "28.652588",
    "longitude": "76.956454"
  },
  {
    "stateName": "DELHI",
    "circleName": "Delhi Circle",
    "regionName": "DivReportingCircle",
    "divisionName": "New Delhi West Division",
    "officeName": "Dindarpur B.O",
    "pinCode": "110043",
    "officeType": "BO",
    "district": "WEST",
    "latitude": "28.592536",
    "longitude": "76.993827"
  },
  {
    "stateName": "DELHI",
    "circleName": "Delhi Circle",
    "regionName": "DivReportingCircle",
    "divisionName": "New Delhi West Division",
    "officeName": "Tilangpur Kotla B.O",
    "pinCode": "110043",
    "officeType": "BO",
    "district": "WEST",
    "latitude": "28.646628",
    "longitude": "77.025715"
  },
  {
    "stateName": "DELHI",
    "circleName": "Delhi Circle",
    "regionName": "DivReportingCircle",
    "divisionName": "New Delhi West Division",
    "officeName": "Dabri B.O",
    "pinCode": "110045",
    "officeType": "BO",
    "district": "SOUTH WEST",
    "latitude": "28.609675",
    "longitude": "77.089542"
  },
  {
    "stateName": "DELHI",
    "circleName": "Delhi Circle",
    "regionName": "DivReportingCircle",
    "divisionName": "New Delhi West Division",
    "officeName": "Ghuman Hera B.O",
    "pinCode": "110073",
    "officeType": "BO",
    "district": "SOUTH WEST",
    "latitude": "28.531999",
    "longitude": "76.923973"
  },
  {
    "stateName": "DELHI",
    "circleName": "Delhi Circle",
    "regionName": "DivReportingCircle",
    "divisionName": "New Delhi West Division",
    "officeName": "Issapur B.O",
    "pinCode": "110073",
    "officeType": "BO",
    "district": "SOUTH WEST",
    "latitude": "24.095817",
    "longitude": "90.412518"
  },
  {
    "stateName": "DELHI",
    "circleName": "Delhi Circle",
    "regionName": "DivReportingCircle",
    "divisionName": "New Delhi West Division",
    "officeName": "Khera Dabur B.O",
    "pinCode": "110073",
    "officeType": "BO",
    "district": "SOUTH WEST",
    "latitude": "28.5838",
    "longitude": "76.936906"
  },
  {
    "stateName": "DELHI",
    "circleName": "Delhi Circle",
    "regionName": "DivReportingCircle",
    "divisionName": "New Delhi West Division",
    "officeName": "Mundela Kalan B.O",
    "pinCode": "110073",
    "officeType": "BO",
    "district": "SOUTH WEST",
    "latitude": "28.609773",
    "longitude": "76.893434"
  },
  {
    "stateName": "DELHI",
    "circleName": "Delhi Circle",
    "regionName": "DivReportingCircle",
    "divisionName": "New Delhi West Division",
    "officeName": "Bakkarwala B.O",
    "pinCode": "110041",
    "officeType": "BO",
    "district": "WEST",
    "latitude": "28.666501",
    "longitude": "77.016371"
  },
  {
    "stateName": "DELHI",
    "circleName": "Delhi Circle",
    "regionName": "DivReportingCircle",
    "divisionName": "New Delhi West Division",
    "officeName": "Hastal Village B.O",
    "pinCode": "110059",
    "officeType": "BO",
    "district": "WEST",
    "latitude": "28.637713",
    "longitude": "77.049026"
  },
  {
    "stateName": "DELHI",
    "circleName": "Delhi Circle",
    "regionName": "DivReportingCircle",
    "divisionName": "New Delhi West Division",
    "officeName": "Jeevan Park B.O",
    "pinCode": "110059",
    "officeType": "BO",
    "district": "WEST",
    "latitude": "NA",
    "longitude": "NA"
  },
  {
    "stateName": "DELHI",
    "circleName": "Delhi Circle",
    "regionName": "DivReportingCircle",
    "divisionName": "Delhi North Division",
    "officeName": "RCAO SO",
    "pinCode": "110007",
    "officeType": "PO",
    "district": "NORTH",
    "latitude": "28.629917",
    "longitude": "77.239895"
  },
  {
    "stateName": "DELHI",
    "circleName": "Delhi Circle",
    "regionName": "DivReportingCircle",
    "divisionName": "Delhi North Division",
    "officeName": "Roshan Ara Road SO",
    "pinCode": "110007",
    "officeType": "PO",
    "district": "NORTH",
    "latitude": "28.6689444",
    "longitude": "77.2061111"
  },
  {
    "stateName": "DELHI",
    "circleName": "Delhi Circle",
    "regionName": "DivReportingCircle",
    "divisionName": "Delhi North Division",
    "officeName": "GTB Nagar SO",
    "pinCode": "110009",
    "officeType": "PO",
    "district": "NORTH",
    "latitude": "28.698444",
    "longitude": "77.202111"
  },
  {
    "stateName": "DELHI",
    "circleName": "Delhi Circle",
    "regionName": "DivReportingCircle",
    "divisionName": "Delhi North Division",
    "officeName": "Kanjhawla SO",
    "pinCode": "110081",
    "officeType": "PO",
    "district": "NORTH WEST",
    "latitude": "28.7349167",
    "longitude": "77.0055556"
  },
  {
    "stateName": "DELHI",
    "circleName": "Delhi Circle",
    "regionName": "DivReportingCircle",
    "divisionName": "Delhi North Division",
    "officeName": "Mangolpuri A Block SO",
    "pinCode": "110083",
    "officeType": "PO",
    "district": "NORTH WEST",
    "latitude": "28.6938611",
    "longitude": "77.0936111"
  },
  {
    "stateName": "DELHI",
    "circleName": "Delhi Circle",
    "regionName": "DivReportingCircle",
    "divisionName": "Delhi North Division",
    "officeName": "Nimri SO",
    "pinCode": "110052",
    "officeType": "PO",
    "district": "NORTH WEST",
    "latitude": "28.6726389",
    "longitude": "77.1811111"
  },
  {
    "stateName": "DELHI",
    "circleName": "Delhi Circle",
    "regionName": "DivReportingCircle",
    "divisionName": "Delhi North Division",
    "officeName": "Rani Bagh SO",
    "pinCode": "110034",
    "officeType": "PO",
    "district": "NORTH WEST",
    "latitude": "28.68875",
    "longitude": "77.1321111"
  },
  {
    "stateName": "DELHI",
    "circleName": "Delhi Circle",
    "regionName": "DivReportingCircle",
    "divisionName": "Delhi North Division",
    "officeName": "Rohini Sector7 SO",
    "pinCode": "110085",
    "officeType": "PO",
    "district": "NORTH WEST",
    "latitude": "28.6933611",
    "longitude": "77.1713889"
  },
  {
    "stateName": "DELHI",
    "circleName": "Delhi Circle",
    "regionName": "DivReportingCircle",
    "divisionName": "Delhi North Division",
    "officeName": "Sarai Rohilla SO",
    "pinCode": "110035",
    "officeType": "PO",
    "district": "NORTH WEST",
    "latitude": "28.6694167",
    "longitude": "77.1763889"
  },
  {
    "stateName": "DELHI",
    "circleName": "Delhi Circle",
    "regionName": "DivReportingCircle",
    "divisionName": "Delhi North Division",
    "officeName": "Satyawati Nagar SO",
    "pinCode": "110052",
    "officeType": "PO",
    "district": "NORTH",
    "latitude": "28.6930833",
    "longitude": "77.1823056"
  },
  {
    "stateName": "DELHI",
    "circleName": "Delhi Circle",
    "regionName": "DivReportingCircle",
    "divisionName": "Delhi North Division",
    "officeName": "Shakur Basti Depot SO",
    "pinCode": "110056",
    "officeType": "PO",
    "district": "NORTH WEST",
    "latitude": "28.6827222",
    "longitude": "77.1111111"
  },
  {
    "stateName": "DELHI",
    "circleName": "Delhi Circle",
    "regionName": "DivReportingCircle",
    "divisionName": "Delhi North Division",
    "officeName": "Wazir Pur III SO",
    "pinCode": "110052",
    "officeType": "PO",
    "district": "NORTH",
    "latitude": "28.67975",
    "longitude": "77.1721389"
  },
  {
    "stateName": "DELHI",
    "circleName": "Delhi Circle",
    "regionName": "DivReportingCircle",
    "divisionName": "Delhi North Division",
    "officeName": "Nathupura Village SO",
    "pinCode": "110084",
    "officeType": "PO",
    "district": "CENTRAL",
    "latitude": "28.7691574",
    "longitude": "77.17729"
  },
  {
    "stateName": "DELHI",
    "circleName": "Delhi Circle",
    "regionName": "DivReportingCircle",
    "divisionName": "New Delhi Central Division",
    "officeName": "AGCR SO",
    "pinCode": "110002",
    "officeType": "PO",
    "district": "CENTRAL",
    "latitude": "28.6284722",
    "longitude": "77.2445556"
  },
  {
    "stateName": "DELHI",
    "circleName": "Delhi Circle",
    "regionName": "DivReportingCircle",
    "divisionName": "New Delhi Central Division",
    "officeName": "Delhi High Court SO",
    "pinCode": "110003",
    "officeType": "PO",
    "district": "NEW DELHI",
    "latitude": "28.6092222",
    "longitude": "77.2359444"
  },
  {
    "stateName": "DELHI",
    "circleName": "Delhi Circle",
    "regionName": "DivReportingCircle",
    "divisionName": "New Delhi Central Division",
    "officeName": "Gandhi Smarak Nidhi SO",
    "pinCode": "110002",
    "officeType": "PO",
    "district": "CENTRAL",
    "latitude": "28.6338611",
    "longitude": "77.2462222"
  },
  {
    "stateName": "DELHI",
    "circleName": "Delhi Circle",
    "regionName": "DivReportingCircle",
    "divisionName": "New Delhi Central Division",
    "officeName": "Hauz Qazi SO",
    "pinCode": "110006",
    "officeType": "PO",
    "district": "NORTH",
    "latitude": "28.6498056",
    "longitude": "77.2263333"
  },
  {
    "stateName": "DELHI",
    "circleName": "Delhi Circle",
    "regionName": "DivReportingCircle",
    "divisionName": "New Delhi Central Division",
    "officeName": "Patiala House SO",
    "pinCode": "110001",
    "officeType": "PO",
    "district": "NEW DELHI",
    "latitude": "28.2348611",
    "longitude": "77.2348611"
  },
  {
    "stateName": "DELHI",
    "circleName": "Delhi Circle",
    "regionName": "DivReportingCircle",
    "divisionName": "New Delhi Central Division",
    "officeName": "Delhi High Court Extension Counter SO",
    "pinCode": "110003",
    "officeType": "PO",
    "district": "NEW DELHI",
    "latitude": "28.6317778",
    "longitude": "77.24025"
  },
  {
    "stateName": "DELHI",
    "circleName": "Delhi Circle",
    "regionName": "DivReportingCircle",
    "divisionName": "New Delhi Central Division",
    "officeName": "Krishi Bhawan SO",
    "pinCode": "110001",
    "officeType": "PO",
    "district": "NEW DELHI",
    "latitude": "28.6159444",
    "longitude": "77.213"
  },
  {
    "stateName": "DELHI",
    "circleName": "Delhi Circle",
    "regionName": "DivReportingCircle",
    "divisionName": "New Delhi Central Division",
    "officeName": "Nirman Bhawan SO",
    "pinCode": "110011",
    "officeType": "PO",
    "district": "NEW DELHI",
    "latitude": "28.6108611",
    "longitude": "77.2148611"
  },
  {
    "stateName": "DELHI",
    "circleName": "Delhi Circle",
    "regionName": "DivReportingCircle",
    "divisionName": "New Delhi Central Division",
    "officeName": "Rail Bhawan SO",
    "pinCode": "110001",
    "officeType": "PO",
    "district": "NEW DELHI",
    "latitude": "28.6158611",
    "longitude": "77.2113889"
  },
  {
    "stateName": "DELHI",
    "circleName": "Delhi Circle",
    "regionName": "DivReportingCircle",
    "divisionName": "New Delhi Central Division",
    "officeName": "Rashtrapati Bhawan SO",
    "pinCode": "110004",
    "officeType": "PO",
    "district": "NEW DELHI",
    "latitude": "28.6210833",
    "longitude": "77.1961389"
  },
  {
    "stateName": "DELHI",
    "circleName": "Delhi Circle",
    "regionName": "DivReportingCircle",
    "divisionName": "New Delhi Central Division",
    "officeName": "Patel Nagar South SO",
    "pinCode": "110008",
    "officeType": "PO",
    "district": "WEST",
    "latitude": "28.64525",
    "longitude": "77.1656667"
  },
  {
    "stateName": "DELHI",
    "circleName": "Delhi Circle",
    "regionName": "DivReportingCircle",
    "divisionName": "New Delhi Central Division",
    "officeName": "Patel Nagar West SO",
    "pinCode": "110008",
    "officeType": "PO",
    "district": "WEST",
    "latitude": "28.6472222",
    "longitude": "77.16975"
  },
  {
    "stateName": "DELHI",
    "circleName": "Delhi Circle",
    "regionName": "DivReportingCircle",
    "divisionName": "New Delhi Central Division",
    "officeName": "Sat Nagar SO",
    "pinCode": "110005",
    "officeType": "PO",
    "district": "CENTRAL",
    "latitude": "28.6488333",
    "longitude": "77.1821111"
  },
  {
    "stateName": "DELHI",
    "circleName": "Delhi Circle",
    "regionName": "DivReportingCircle",
    "divisionName": "New Delhi Central Division",
    "officeName": "Swami Ram Tirth Nagar SO",
    "pinCode": "110055",
    "officeType": "PO",
    "district": "CENTRAL",
    "latitude": "28.6460833",
    "longitude": "77.2025278"
  },
  {
    "stateName": "DELHI",
    "circleName": "Delhi Circle",
    "regionName": "DivReportingCircle",
    "divisionName": "New Delhi South Division",
    "officeName": "Badarpur SO South Delhi",
    "pinCode": "110044",
    "officeType": "PO",
    "district": "SOUTH",
    "latitude": "28.5042",
    "longitude": "77.3022"
  },
  {
    "stateName": "DELHI",
    "circleName": "Delhi Circle",
    "regionName": "DivReportingCircle",
    "divisionName": "New Delhi South Division",
    "officeName": "Hamdard Nagar SO",
    "pinCode": "110062",
    "officeType": "PO",
    "district": "SOUTH",
    "latitude": "28.5125556",
    "longitude": "77.2510556"
  },
  {
    "stateName": "DELHI",
    "circleName": "Delhi Circle",
    "regionName": "DivReportingCircle",
    "divisionName": "New Delhi South Division",
    "officeName": "Jaitpur SO South Delhi",
    "pinCode": "110044",
    "officeType": "PO",
    "district": "South East",
    "latitude": "28.51",
    "longitude": "77.33"
  },
  {
    "stateName": "DELHI",
    "circleName": "Delhi Circle",
    "regionName": "DivReportingCircle",
    "divisionName": "New Delhi South Division",
    "officeName": "Jamia Nagar SO",
    "pinCode": "110025",
    "officeType": "PO",
    "district": "South East",
    "latitude": "28.5613611",
    "longitude": "77.2795833"
  },
  {
    "stateName": "DELHI",
    "circleName": "Delhi Circle",
    "regionName": "DivReportingCircle",
    "divisionName": "New Delhi South Division",
    "officeName": "Okhla Industrial Area Phasei SO",
    "pinCode": "110020",
    "officeType": "PO",
    "district": "South East",
    "latitude": "28.543282",
    "longitude": "77.257845"
  },
  {
    "stateName": "DELHI",
    "circleName": "Delhi Circle",
    "regionName": "DivReportingCircle",
    "divisionName": "New Delhi South Division",
    "officeName": "Sangam Vihar SO",
    "pinCode": "110080",
    "officeType": "PO",
    "district": "SOUTH",
    "latitude": "28.5",
    "longitude": "77.24"
  },
  {
    "stateName": "DELHI",
    "circleName": "Delhi Circle",
    "regionName": "DivReportingCircle",
    "divisionName": "New Delhi South Division",
    "officeName": "Hari Nagar Ashram SO",
    "pinCode": "110014",
    "officeType": "PO",
    "district": "South East",
    "latitude": "28.57",
    "longitude": "77.26"
  },
  {
    "stateName": "DELHI",
    "circleName": "Delhi Circle",
    "regionName": "DivReportingCircle",
    "divisionName": "New Delhi South Division",
    "officeName": "Jungpura SO",
    "pinCode": "110014",
    "officeType": "PO",
    "district": "SOUTH",
    "latitude": "28.5838611",
    "longitude": "77.2431944"
  },
  {
    "stateName": "DELHI",
    "circleName": "Delhi Circle",
    "regionName": "DivReportingCircle",
    "divisionName": "New Delhi South Division",
    "officeName": "Pragati Vihar SO",
    "pinCode": "110003",
    "officeType": "PO",
    "district": "South East",
    "latitude": "28.5868333",
    "longitude": "77.2309444"
  },
  {
    "stateName": "DELHI",
    "circleName": "Delhi Circle",
    "regionName": "DivReportingCircle",
    "divisionName": "New Delhi South Division",
    "officeName": "Safdarjung Air Port SO",
    "pinCode": "110003",
    "officeType": "PO",
    "district": "South East",
    "latitude": "28.5859167",
    "longitude": "77.2095556"
  },
  {
    "stateName": "DELHI",
    "circleName": "Delhi Circle",
    "regionName": "DivReportingCircle",
    "divisionName": "New Delhi South Division",
    "officeName": "Sarvodya Enclave SO",
    "pinCode": "110017",
    "officeType": "PO",
    "district": "SOUTH",
    "latitude": "28.54",
    "longitude": "77.2000833"
  },
  {
    "stateName": "DELHI",
    "circleName": "Delhi Circle",
    "regionName": "DivReportingCircle",
    "divisionName": "New Delhi South West Division",
    "officeName": "Ansari Nagar SO",
    "pinCode": "110029",
    "officeType": "PO",
    "district": "SOUTH",
    "latitude": "28.5649167",
    "longitude": "77.2068056"
  },
  {
    "stateName": "DELHI",
    "circleName": "Delhi Circle",
    "regionName": "DivReportingCircle",
    "divisionName": "New Delhi South West Division",
    "officeName": "Bijwasan SO",
    "pinCode": "110061",
    "officeType": "PO",
    "district": "SOUTH WEST",
    "latitude": "28.53285",
    "longitude": "77.05162"
  },
  {
    "stateName": "DELHI",
    "circleName": "Delhi Circle",
    "regionName": "DivReportingCircle",
    "divisionName": "New Delhi South West Division",
    "officeName": "Chattarpur SO",
    "pinCode": "110074",
    "officeType": "PO",
    "district": "SOUTH",
    "latitude": "28.496388",
    "longitude": "77.184166"
  },
  {
    "stateName": "DELHI",
    "circleName": "Delhi Circle",
    "regionName": "DivReportingCircle",
    "divisionName": "New Delhi South West Division",
    "officeName": "Delhi Cantt SO",
    "pinCode": "110010",
    "officeType": "PO",
    "district": "NEW DELHI",
    "latitude": "28.595916",
    "longitude": "77.136464"
  },
  {
    "stateName": "DELHI",
    "circleName": "Delhi Circle",
    "regionName": "DivReportingCircle",
    "divisionName": "New Delhi South West Division",
    "officeName": "Kapashera SO",
    "pinCode": "110097",
    "officeType": "PO",
    "district": "SOUTH WEST",
    "latitude": "28.528884",
    "longitude": "77.086554"
  },
  {
    "stateName": "DELHI",
    "circleName": "Delhi Circle",
    "regionName": "DivReportingCircle",
    "divisionName": "New Delhi South West Division",
    "officeName": "R K Puram Sect3 SO",
    "pinCode": "110022",
    "officeType": "PO",
    "district": "NEW DELHI",
    "latitude": "28.5551111",
    "longitude": "77.1717778"
  },
  {
    "stateName": "DELHI",
    "circleName": "Delhi Circle",
    "regionName": "DivReportingCircle",
    "divisionName": "New Delhi South West Division",
    "officeName": "R K Puram Sect4 SO",
    "pinCode": "110022",
    "officeType": "PO",
    "district": "NEW DELHI",
    "latitude": "28.555",
    "longitude": "77.1810278"
  },
  {
    "stateName": "DELHI",
    "circleName": "Delhi Circle",
    "regionName": "DivReportingCircle",
    "divisionName": "New Delhi South West Division",
    "officeName": "R R Hospital SO",
    "pinCode": "110010",
    "officeType": "PO",
    "district": "NEW DELHI",
    "latitude": "28.5845",
    "longitude": "77.1308056"
  },
  {
    "stateName": "DELHI",
    "circleName": "Delhi Circle",
    "regionName": "DivReportingCircle",
    "divisionName": "New Delhi West Division",
    "officeName": "Palam Extn (Harijan Basti) S.O",
    "pinCode": "110077",
    "officeType": "PO",
    "district": "SOUTH WEST",
    "latitude": "28.587944",
    "longitude": "77.072276"
  },
  {
    "stateName": "DELHI",
    "circleName": "Delhi Circle",
    "regionName": "DivReportingCircle",
    "divisionName": "New Delhi West Division",
    "officeName": "Sagarpur S.O",
    "pinCode": "110046",
    "officeType": "PO",
    "district": "NEW DELHI",
    "latitude": "28.6110556",
    "longitude": "77.1029167"
  },
  {
    "stateName": "DELHI",
    "circleName": "Delhi Circle",
    "regionName": "DivReportingCircle",
    "divisionName": "New Delhi West Division",
    "officeName": "GGSIP University S.O",
    "pinCode": "110078",
    "officeType": "PO",
    "district": "SOUTH WEST",
    "latitude": "28.6330278",
    "longitude": "77.1366389"
  },
  {
    "stateName": "DELHI",
    "circleName": "Delhi Circle",
    "regionName": "DivReportingCircle",
    "divisionName": "New Delhi West Division",
    "officeName": "Chanchal Park SO",
    "pinCode": "110043",
    "officeType": "PO",
    "district": "WEST",
    "latitude": "NA",
    "longitude": "NA"
  },
  {
    "stateName": "DELHI",
    "circleName": "Delhi Circle",
    "regionName": "DivReportingCircle",
    "divisionName": "New Delhi West Division",
    "officeName": "Durga Park PO",
    "pinCode": "110043",
    "officeType": "PO",
    "district": "WEST",
    "latitude": "28.602626",
    "longitude": "77.089702"
  },
  {
    "stateName": "DELHI",
    "circleName": "Delhi Circle",
    "regionName": "DivReportingCircle",
    "divisionName": "New Delhi West Division",
    "officeName": "ESI S.O",
    "pinCode": "110015",
    "officeType": "PO",
    "district": "WEST",
    "latitude": "28.6591944",
    "longitude": "77.1315"
  },
  {
    "stateName": "DELHI",
    "circleName": "Delhi Circle",
    "regionName": "DivReportingCircle",
    "divisionName": "New Delhi West Division",
    "officeName": "Jail Road S.O (West Delhi)",
    "pinCode": "110058",
    "officeType": "PO",
    "district": "WEST",
    "latitude": "28.636095",
    "longitude": "77.096574"
  },
  {
    "stateName": "DELHI",
    "circleName": "Delhi Circle",
    "regionName": "DivReportingCircle",
    "divisionName": "New Delhi West Division",
    "officeName": "Khyala Phase   II S.O",
    "pinCode": "110018",
    "officeType": "PO",
    "district": "WEST",
    "latitude": "28.6569167",
    "longitude": "77.10325"
  },
  {
    "stateName": "DELHI",
    "circleName": "Delhi Circle",
    "regionName": "DivReportingCircle",
    "divisionName": "New Delhi West Division",
    "officeName": "M.B.S. Nagar S.O",
    "pinCode": "110018",
    "officeType": "PO",
    "district": "WEST",
    "latitude": "28.6471389",
    "longitude": "77.0853056"
  },
  {
    "stateName": "DELHI",
    "circleName": "Delhi Circle",
    "regionName": "DivReportingCircle",
    "divisionName": "New Delhi West Division",
    "officeName": "Madipur Village S.O",
    "pinCode": "110063",
    "officeType": "PO",
    "district": "WEST",
    "latitude": "28.6735833",
    "longitude": "77.1226111"
  },
  {
    "stateName": "DELHI",
    "circleName": "Delhi Circle",
    "regionName": "DivReportingCircle",
    "divisionName": "New Delhi West Division",
    "officeName": "Nangloi   III S.O",
    "pinCode": "110041",
    "officeType": "PO",
    "district": "WEST",
    "latitude": "28.6829722",
    "longitude": "77.0718056"
  },
  {
    "stateName": "DELHI",
    "circleName": "Delhi Circle",
    "regionName": "DivReportingCircle",
    "divisionName": "New Delhi West Division",
    "officeName": "Nangloi S.O",
    "pinCode": "110041",
    "officeType": "PO",
    "district": "WEST",
    "latitude": "28.6795833",
    "longitude": "77.0660556"
  },
  {
    "stateName": "DELHI",
    "circleName": "Delhi Circle",
    "regionName": "DivReportingCircle",
    "divisionName": "New Delhi West Division",
    "officeName": "Paschim Vihar B Block S.O",
    "pinCode": "110063",
    "officeType": "PO",
    "district": "WEST",
    "latitude": "28.66325",
    "longitude": "77.1088056"
  },
  {
    "stateName": "DELHI",
    "circleName": "Delhi Circle",
    "regionName": "DivReportingCircle",
    "divisionName": "New Delhi West Division",
    "officeName": "Punjabi Bagh Sec   III S.O",
    "pinCode": "110026",
    "officeType": "PO",
    "district": "WEST",
    "latitude": "28.6198611",
    "longitude": "77.0975833"
  },
  {
    "stateName": "DELHI",
    "circleName": "Delhi Circle",
    "regionName": "DivReportingCircle",
    "divisionName": "New Delhi Central Division",
    "officeName": "Sansad Marg HO",
    "pinCode": "110001",
    "officeType": "HO",
    "district": "NEW DELHI",
    "latitude": "28.6225833",
    "longitude": "77.2127222"
  },
  {
    "stateName": "DELHI",
    "circleName": "Delhi Circle",
    "regionName": "DivReportingCircle",
    "divisionName": "Delhi East Division",
    "officeName": "Balbir Nagar SO",
    "pinCode": "110032",
    "officeType": "PO",
    "district": "SHAHDARA",
    "latitude": "28.6829444",
    "longitude": "77.2943611"
  },
  {
    "stateName": "DELHI",
    "circleName": "Delhi Circle",
    "regionName": "DivReportingCircle",
    "divisionName": "Delhi East Division",
    "officeName": "Bhajan Pura SO",
    "pinCode": "110053",
    "officeType": "PO",
    "district": "NORTH EAST",
    "latitude": "28.7020833",
    "longitude": "77.26425"
  },
  {
    "stateName": "DELHI",
    "circleName": "Delhi Circle",
    "regionName": "DivReportingCircle",
    "divisionName": "Delhi East Division",
    "officeName": "Brahampuri SO",
    "pinCode": "110053",
    "officeType": "PO",
    "district": "NORTH EAST",
    "latitude": "28.6871944",
    "longitude": "77.2633056"
  },
  {
    "stateName": "DELHI",
    "circleName": "Delhi Circle",
    "regionName": "DivReportingCircle",
    "divisionName": "Delhi East Division",
    "officeName": "Dilshad Garden SO",
    "pinCode": "110095",
    "officeType": "PO",
    "district": "SHAHDARA",
    "latitude": "28.6794722",
    "longitude": "77.3086944"
  },
  {
    "stateName": "DELHI",
    "circleName": "Delhi Circle",
    "regionName": "DivReportingCircle",
    "divisionName": "Delhi East Division",
    "officeName": "Jagjit Nagar SO",
    "pinCode": "110053",
    "officeType": "PO",
    "district": "NORTH EAST",
    "latitude": "28.6870833",
    "longitude": "77.2591111"
  },
  {
    "stateName": "DELHI",
    "circleName": "Delhi Circle",
    "regionName": "DivReportingCircle",
    "divisionName": "Delhi East Division",
    "officeName": "Housing Complex Loni Road SO",
    "pinCode": "110093",
    "officeType": "PO",
    "district": "NORTH EAST",
    "latitude": "28.69525",
    "longitude": "77.2953333"
  },
  {
    "stateName": "DELHI",
    "circleName": "Delhi Circle",
    "regionName": "DivReportingCircle",
    "divisionName": "Delhi East Division",
    "officeName": "Rohtash Nagar SO",
    "pinCode": "110032",
    "officeType": "PO",
    "district": "SHAHDARA",
    "latitude": "28.6806111",
    "longitude": "77.2859444"
  },
  {
    "stateName": "DELHI",
    "circleName": "Delhi Circle",
    "regionName": "DivReportingCircle",
    "divisionName": "Delhi East Division",
    "officeName": "Yamuna Vihar SO",
    "pinCode": "110053",
    "officeType": "PO",
    "district": "NORTH EAST",
    "latitude": "28.7006667",
    "longitude": "77.2776389"
  },
  {
    "stateName": "DELHI",
    "circleName": "Delhi Circle",
    "regionName": "DivReportingCircle",
    "divisionName": "Delhi East Division",
    "officeName": "Anand Vihar SO",
    "pinCode": "110092",
    "officeType": "PO",
    "district": "EAST",
    "latitude": "28.6522222",
    "longitude": "77.3064444"
  },
  {
    "stateName": "DELHI",
    "circleName": "Delhi Circle",
    "regionName": "DivReportingCircle",
    "divisionName": "Delhi East Division",
    "officeName": "Geeta Colony SO",
    "pinCode": "110031",
    "officeType": "PO",
    "district": "SHAHDARA",
    "latitude": "28.653",
    "longitude": "77.2741667"
  },
  {
    "stateName": "DELHI",
    "circleName": "Delhi Circle",
    "regionName": "DivReportingCircle",
    "divisionName": "Delhi East Division",
    "officeName": "Govind Pura SO",
    "pinCode": "110051",
    "officeType": "PO",
    "district": "EAST",
    "latitude": "28.6453611",
    "longitude": "77.2871111"
  },
  {
    "stateName": "DELHI",
    "circleName": "Delhi Circle",
    "regionName": "DivReportingCircle",
    "divisionName": "Delhi East Division",
    "officeName": "Nirman Vihar SO",
    "pinCode": "110092",
    "officeType": "PO",
    "district": "EAST",
    "latitude": "28.635",
    "longitude": "77.2895556"
  },
  {
    "stateName": "DELHI",
    "circleName": "Delhi Circle",
    "regionName": "DivReportingCircle",
    "divisionName": "Delhi East Division",
    "officeName": "Shastri Nagar SO East Delhi",
    "pinCode": "110031",
    "officeType": "PO",
    "district": "EAST",
    "latitude": "28.69225",
    "longitude": "77.2742222"
  },
  {
    "stateName": "DELHI",
    "circleName": "Delhi Circle",
    "regionName": "DivReportingCircle",
    "divisionName": "Delhi East Division",
    "officeName": "Vishwakarma Nagar SO",
    "pinCode": "110095",
    "officeType": "PO",
    "district": "SHAHDARA",
    "latitude": "28.6721111",
    "longitude": "77.3069722"
  },
  {
    "stateName": "DELHI",
    "circleName": "Delhi Circle",
    "regionName": "DivReportingCircle",
    "divisionName": "Delhi East Division",
    "officeName": "Vivek Vihar SO",
    "pinCode": "110095",
    "officeType": "PO",
    "district": "SHAHDARA",
    "latitude": "28.6759722",
    "longitude": "77.3267778"
  },
  {
    "stateName": "DELHI",
    "circleName": "Delhi Circle",
    "regionName": "DivReportingCircle",
    "divisionName": "Delhi East Division",
    "officeName": "New Ashok Nagar S.O",
    "pinCode": "110096",
    "officeType": "PO",
    "district": "EAST",
    "latitude": "28.596722",
    "longitude": "77.312114"
  },
  {
    "stateName": "DELHI",
    "circleName": "Delhi Circle",
    "regionName": "DivReportingCircle",
    "divisionName": "Delhi East Division",
    "officeName": "CHILLA  SO",
    "pinCode": "110091",
    "officeType": "PO",
    "district": "EAST",
    "latitude": "28.5959",
    "longitude": "77.3003"
  },
  {
    "stateName": "DELHI",
    "circleName": "Delhi Circle",
    "regionName": "DivReportingCircle",
    "divisionName": "Delhi North Division",
    "officeName": "Burari SO",
    "pinCode": "110084",
    "officeType": "PO",
    "district": "CENTRAL",
    "latitude": "28.7572222",
    "longitude": "77.1977778"
  },
  {
    "stateName": "DELHI",
    "circleName": "Delhi Circle",
    "regionName": "DivReportingCircle",
    "divisionName": "Delhi North Division",
    "officeName": "Delhi University SO",
    "pinCode": "110007",
    "officeType": "PO",
    "district": "NORTH",
    "latitude": "28.68975",
    "longitude": "77.2152778"
  },
  {
    "stateName": "DELHI",
    "circleName": "Delhi Circle",
    "regionName": "DivReportingCircle",
    "divisionName": "Delhi East Division",
    "officeName": "Badarpur Khadar BO",
    "pinCode": "110090",
    "officeType": "BO",
    "district": "NORTH EAST",
    "latitude": "28.69225",
    "longitude": "77.3042222"
  },
  {
    "stateName": "DELHI",
    "circleName": "Delhi Circle",
    "regionName": "DivReportingCircle",
    "divisionName": "Delhi East Division",
    "officeName": "Garhi Mandu BO",
    "pinCode": "110053",
    "officeType": "BO",
    "district": "NORTH EAST",
    "latitude": "28.38",
    "longitude": "77.12"
  },
  {
    "stateName": "DELHI",
    "circleName": "Delhi Circle",
    "regionName": "DivReportingCircle",
    "divisionName": "Delhi East Division",
    "officeName": "Ghazipur BO",
    "pinCode": "110096",
    "officeType": "BO",
    "district": "EAST",
    "latitude": "28.61777",
    "longitude": "77.32961"
  },
  {
    "stateName": "DELHI",
    "circleName": "Delhi Circle",
    "regionName": "DivReportingCircle",
    "divisionName": "Delhi North Division",
    "officeName": "Bakhtawar Pur BO",
    "pinCode": "110036",
    "officeType": "BO",
    "district": "NORTH",
    "latitude": "28.7996944",
    "longitude": "77.0380555"
  },
  {
    "stateName": "DELHI",
    "circleName": "Delhi Circle",
    "regionName": "DivReportingCircle",
    "divisionName": "Delhi North Division",
    "officeName": "Palla BO",
    "pinCode": "110036",
    "officeType": "BO",
    "district": "NORTH",
    "latitude": "28.7978055",
    "longitude": "77.13"
  },
  {
    "stateName": "DELHI",
    "circleName": "Delhi Circle",
    "regionName": "DivReportingCircle",
    "divisionName": "Delhi North Division",
    "officeName": "Auchandi BO",
    "pinCode": "110039",
    "officeType": "BO",
    "district": "NORTH",
    "latitude": "28.7996944",
    "longitude": "77.0380555"
  },
  {
    "stateName": "DELHI",
    "circleName": "Delhi Circle",
    "regionName": "DivReportingCircle",
    "divisionName": "Delhi North Division",
    "officeName": "Ghoga BO",
    "pinCode": "110039",
    "officeType": "BO",
    "district": "NORTH",
    "latitude": "28.7996944",
    "longitude": "77.0380555"
  },
  {
    "stateName": "DELHI",
    "circleName": "Delhi Circle",
    "regionName": "DivReportingCircle",
    "divisionName": "Delhi North Division",
    "officeName": "Gheora BO",
    "pinCode": "110081",
    "officeType": "BO",
    "district": "NORTH WEST",
    "latitude": "28.7349166",
    "longitude": "77.0055555"
  },
  {
    "stateName": "DELHI",
    "circleName": "Delhi Circle",
    "regionName": "DivReportingCircle",
    "divisionName": "Delhi North Division",
    "officeName": "Mubarak Pur Dabas BO",
    "pinCode": "110081",
    "officeType": "BO",
    "district": "NORTH WEST",
    "latitude": "28.7349166",
    "longitude": "77.0055555"
  },
  {
    "stateName": "DELHI",
    "circleName": "Delhi Circle",
    "regionName": "DivReportingCircle",
    "divisionName": "Delhi North Division",
    "officeName": "Rani Khera BO",
    "pinCode": "110081",
    "officeType": "BO",
    "district": "NORTH WEST",
    "latitude": "28.7349166",
    "longitude": "77.0055555"
  },
  {
    "stateName": "DELHI",
    "circleName": "Delhi Circle",
    "regionName": "DivReportingCircle",
    "divisionName": "Delhi North Division",
    "officeName": "Bhorgarh BO",
    "pinCode": "110040",
    "officeType": "BO",
    "district": "NORTH",
    "latitude": "28.8508055",
    "longitude": "77.0880555"
  },
  {
    "stateName": "DELHI",
    "circleName": "Delhi Circle",
    "regionName": "DivReportingCircle",
    "divisionName": "Delhi North Division",
    "officeName": "Lampur BO",
    "pinCode": "110040",
    "officeType": "BO",
    "district": "NORTH",
    "latitude": "28.8508055",
    "longitude": "77.0880555"
  },
  {
    "stateName": "DELHI",
    "circleName": "Delhi Circle",
    "regionName": "DivReportingCircle",
    "divisionName": "Delhi North Division",
    "officeName": "Rithala BO",
    "pinCode": "110085",
    "officeType": "BO",
    "district": "NORTH WEST",
    "latitude": "28.6933611",
    "longitude": "77.1713889"
  },
  {
    "stateName": "DELHI",
    "circleName": "Delhi Circle",
    "regionName": "DivReportingCircle",
    "divisionName": "Delhi North Division",
    "officeName": "Shalamar BO",
    "pinCode": "110088",
    "officeType": "BO",
    "district": "NORTH",
    "latitude": "28.6933611",
    "longitude": "77.1713889"
  },
  {
    "stateName": "DELHI",
    "circleName": "Delhi Circle",
    "regionName": "DivReportingCircle",
    "divisionName": "Delhi North Division",
    "officeName": "Pooth Kalan BO",
    "pinCode": "110086",
    "officeType": "BO",
    "district": "NORTH WEST",
    "latitude": "28.7016111",
    "longitude": "77.0797222"
  },
  {
    "stateName": "DELHI",
    "circleName": "Delhi Circle",
    "regionName": "DivReportingCircle",
    "divisionName": "Delhi North Division",
    "officeName": "Prem Nagar BO",
    "pinCode": "110086",
    "officeType": "BO",
    "district": "NORTH WEST",
    "latitude": "28.7016111",
    "longitude": "77.0797222"
  },
  {
    "stateName": "DELHI",
    "circleName": "Delhi Circle",
    "regionName": "DivReportingCircle",
    "divisionName": "New Delhi South Division",
    "officeName": "Tehkhand BO",
    "pinCode": "110020",
    "officeType": "BO",
    "district": "SOUTH",
    "latitude": "28.52",
    "longitude": "77.29"
  },
  {
    "stateName": "DELHI",
    "circleName": "Delhi Circle",
    "regionName": "DivReportingCircle",
    "divisionName": "New Delhi South West Division",
    "officeName": "Shahbad Mohammadpur BO",
    "pinCode": "110061",
    "officeType": "BO",
    "district": "NEW DELHI",
    "latitude": "28.54",
    "longitude": "77.05"
  },
  {
    "stateName": "DELHI",
    "circleName": "Delhi Circle",
    "regionName": "DivReportingCircle",
    "divisionName": "New Delhi South West Division",
    "officeName": "Nangal Dewat BO",
    "pinCode": "110037",
    "officeType": "BO",
    "district": "NEW DELHI",
    "latitude": "28.5302777",
    "longitude": "77.1155277"
  },
  {
    "stateName": "DELHI",
    "circleName": "Delhi Circle",
    "regionName": "DivReportingCircle",
    "divisionName": "New Delhi South West Division",
    "officeName": "Maidan Garhi BO",
    "pinCode": "110068",
    "officeType": "BO",
    "district": "SOUTH",
    "latitude": "28.5012222",
    "longitude": "77.2003055"
  },
  {
    "stateName": "DELHI",
    "circleName": "Delhi Circle",
    "regionName": "DivReportingCircle",
    "divisionName": "New Delhi West Division",
    "officeName": "Amberhai B.O",
    "pinCode": "110075",
    "officeType": "BO",
    "district": "SOUTH WEST",
    "latitude": "28.578231",
    "longitude": "77.04961"
  },
  {
    "stateName": "DELHI",
    "circleName": "Delhi Circle",
    "regionName": "DivReportingCircle",
    "divisionName": "New Delhi West Division",
    "officeName": "Dichaun Kalan B.O",
    "pinCode": "110043",
    "officeType": "BO",
    "district": "WEST",
    "latitude": "28.641361",
    "longitude": "76.984018"
  },
  {
    "stateName": "DELHI",
    "circleName": "Delhi Circle",
    "regionName": "DivReportingCircle",
    "divisionName": "New Delhi West Division",
    "officeName": "Pandwala Kalan B.O",
    "pinCode": "110043",
    "officeType": "BO",
    "district": "WEST",
    "latitude": "28.564762",
    "longitude": "76.951343"
  },
  {
    "stateName": "DELHI",
    "circleName": "Delhi Circle",
    "regionName": "DivReportingCircle",
    "divisionName": "New Delhi West Division",
    "officeName": "Bagdola B.O",
    "pinCode": "110077",
    "officeType": "BO",
    "district": "NEW DELHI",
    "latitude": "28.571529",
    "longitude": "77.072995"
  },
  {
    "stateName": "DELHI",
    "circleName": "Delhi Circle",
    "regionName": "DivReportingCircle",
    "divisionName": "New Delhi West Division",
    "officeName": "Jafarpur B.O",
    "pinCode": "110073",
    "officeType": "BO",
    "district": "SOUTH WEST",
    "latitude": "22.321388",
    "longitude": "88.248552"
  },
  {
    "stateName": "DELHI",
    "circleName": "Delhi Circle",
    "regionName": "DivReportingCircle",
    "divisionName": "Delhi East Division",
    "officeName": "Bhola Nath Nagar SO",
    "pinCode": "110032",
    "officeType": "PO",
    "district": "SHAHDARA",
    "latitude": "28.6546944",
    "longitude": "77.2973611"
  },
  {
    "stateName": "DELHI",
    "circleName": "Delhi Circle",
    "regionName": "DivReportingCircle",
    "divisionName": "Delhi East Division",
    "officeName": "Harsh Vihar SO",
    "pinCode": "110093",
    "officeType": "PO",
    "district": "NORTH EAST",
    "latitude": "28.7021944",
    "longitude": "77.3236389"
  },
  {
    "stateName": "DELHI",
    "circleName": "Delhi Circle",
    "regionName": "DivReportingCircle",
    "divisionName": "Delhi East Division",
    "officeName": "Loni Road SO",
    "pinCode": "110032",
    "officeType": "PO",
    "district": "SHAHDARA",
    "latitude": "28.6921667",
    "longitude": "77.3042222"
  },
  {
    "stateName": "DELHI",
    "circleName": "Delhi Circle",
    "regionName": "DivReportingCircle",
    "divisionName": "Delhi East Division",
    "officeName": "Nand Nagri C SO",
    "pinCode": "110093",
    "officeType": "PO",
    "district": "NORTH EAST",
    "latitude": "28.6921111",
    "longitude": "77.3042222"
  },
  {
    "stateName": "DELHI",
    "circleName": "Delhi Circle",
    "regionName": "DivReportingCircle",
    "divisionName": "Delhi East Division",
    "officeName": "Seelampur SO",
    "pinCode": "110053",
    "officeType": "PO",
    "district": "NORTH EAST",
    "latitude": "28.6737778",
    "longitude": "77.2763889"
  },
  {
    "stateName": "DELHI",
    "circleName": "Delhi Circle",
    "regionName": "DivReportingCircle",
    "divisionName": "Delhi East Division",
    "officeName": "Shahdara Mandi SO",
    "pinCode": "110032",
    "officeType": "PO",
    "district": "SHAHDARA",
    "latitude": "28.6699167",
    "longitude": "77.2888333"
  },
  {
    "stateName": "DELHI",
    "circleName": "Delhi Circle",
    "regionName": "DivReportingCircle",
    "divisionName": "Delhi East Division",
    "officeName": "Sonia Vihar SO",
    "pinCode": "110090",
    "officeType": "PO",
    "district": "NORTH EAST",
    "latitude": "28.7262778",
    "longitude": "77.2476944"
  },
  {
    "stateName": "DELHI",
    "circleName": "Delhi Circle",
    "regionName": "DivReportingCircle",
    "divisionName": "Delhi East Division",
    "officeName": "Azad Nagar SO East Delhi",
    "pinCode": "110051",
    "officeType": "PO",
    "district": "SHAHDARA",
    "latitude": "28.69225",
    "longitude": "77.3042222"
  },
  {
    "stateName": "DELHI",
    "circleName": "Delhi Circle",
    "regionName": "DivReportingCircle",
    "divisionName": "Delhi East Division",
    "officeName": "Distt Court KKD SO",
    "pinCode": "110032",
    "officeType": "PO",
    "district": "SHAHDARA",
    "latitude": "28.6546944",
    "longitude": "77.2973611"
  },
  {
    "stateName": "DELHI",
    "circleName": "Delhi Circle",
    "regionName": "DivReportingCircle",
    "divisionName": "Delhi East Division",
    "officeName": "Gandhi Nagar SO East Delhi",
    "pinCode": "110031",
    "officeType": "PO",
    "district": "SHAHDARA",
    "latitude": "28.6921111",
    "longitude": "77.3042222"
  },
  {
    "stateName": "DELHI",
    "circleName": "Delhi Circle",
    "regionName": "DivReportingCircle",
    "divisionName": "Delhi East Division",
    "officeName": "Kailash Nagar SO",
    "pinCode": "110031",
    "officeType": "PO",
    "district": "SHAHDARA",
    "latitude": "28.6646111",
    "longitude": "77.2593611"
  },
  {
    "stateName": "DELHI",
    "circleName": "Delhi Circle",
    "regionName": "DivReportingCircle",
    "divisionName": "Delhi East Division",
    "officeName": "Mayur Vihar PhIII SO",
    "pinCode": "110096",
    "officeType": "PO",
    "district": "EAST",
    "latitude": "28.6086389",
    "longitude": "77.3364167"
  },
  {
    "stateName": "DELHI",
    "circleName": "Delhi Circle",
    "regionName": "DivReportingCircle",
    "divisionName": "Delhi East Division",
    "officeName": "Patparganj SO",
    "pinCode": "110091",
    "officeType": "PO",
    "district": "EAST",
    "latitude": "28.6143611",
    "longitude": "77.2900278"
  },
  {
    "stateName": "DELHI",
    "circleName": "Delhi Circle",
    "regionName": "DivReportingCircle",
    "divisionName": "Delhi East Division",
    "officeName": "Yozna Vihar SO",
    "pinCode": "110092",
    "officeType": "PO",
    "district": "EAST",
    "latitude": "28.69225",
    "longitude": "77.3042222"
  },
  {
    "stateName": "DELHI",
    "circleName": "Delhi Circle",
    "regionName": "DivReportingCircle",
    "divisionName": "Delhi North Division",
    "officeName": "Jawahar Nagar SO North Delhi",
    "pinCode": "110007",
    "officeType": "PO",
    "district": "NORTH",
    "latitude": "28.678498",
    "longitude": "77.207323"
  },
  {
    "stateName": "DELHI",
    "circleName": "Delhi Circle",
    "regionName": "DivReportingCircle",
    "divisionName": "Delhi North Division",
    "officeName": "Padam Nagar SO North Delhi",
    "pinCode": "110007",
    "officeType": "PO",
    "district": "NORTH",
    "latitude": "28.667454",
    "longitude": "77.191701"
  },
  {
    "stateName": "DELHI",
    "circleName": "Delhi Circle",
    "regionName": "DivReportingCircle",
    "divisionName": "Delhi North Division",
    "officeName": "Patrachar Vidyalay SO",
    "pinCode": "110054",
    "officeType": "PO",
    "district": "CENTRAL",
    "latitude": "28.7060278",
    "longitude": "77.2217778"
  },
  {
    "stateName": "DELHI",
    "circleName": "Delhi Circle",
    "regionName": "DivReportingCircle",
    "divisionName": "Delhi North Division",
    "officeName": "Adrash Nagar SO",
    "pinCode": "110033",
    "officeType": "PO",
    "district": "NORTH",
    "latitude": "28.7164722",
    "longitude": "77.175"
  },
  {
    "stateName": "DELHI",
    "circleName": "Delhi Circle",
    "regionName": "DivReportingCircle",
    "divisionName": "Delhi North Division",
    "officeName": "Avantika SO",
    "pinCode": "110085",
    "officeType": "PO",
    "district": "NORTH WEST",
    "latitude": "28.707962",
    "longitude": "77.117033"
  },
  {
    "stateName": "DELHI",
    "circleName": "Delhi Circle",
    "regionName": "DivReportingCircle",
    "divisionName": "Delhi North Division",
    "officeName": "Ganeshpura SO",
    "pinCode": "110035",
    "officeType": "PO",
    "district": "NORTH WEST",
    "latitude": "28.6754167",
    "longitude": "77.1655556"
  },
  {
    "stateName": "DELHI",
    "circleName": "Delhi Circle",
    "regionName": "DivReportingCircle",
    "divisionName": "Delhi North Division",
    "officeName": "Jahangir Puri D Block SO",
    "pinCode": "110033",
    "officeType": "PO",
    "district": "NORTH",
    "latitude": "28.7305",
    "longitude": "77.1754722"
  },
  {
    "stateName": "DELHI",
    "circleName": "Delhi Circle",
    "regionName": "DivReportingCircle",
    "divisionName": "Delhi North Division",
    "officeName": "NSMandi SO",
    "pinCode": "110033",
    "officeType": "PO",
    "district": "NORTH",
    "latitude": "28.7126944",
    "longitude": "77.1733333"
  },
  {
    "stateName": "DELHI",
    "circleName": "Delhi Circle",
    "regionName": "DivReportingCircle",
    "divisionName": "Delhi North Division",
    "officeName": "Narela SO",
    "pinCode": "110040",
    "officeType": "PO",
    "district": "NORTH",
    "latitude": "28.8508056",
    "longitude": "77.0880556"
  },
  {
    "stateName": "DELHI",
    "circleName": "Delhi Circle",
    "regionName": "DivReportingCircle",
    "divisionName": "Delhi North Division",
    "officeName": "Prashant Vihar SO",
    "pinCode": "110085",
    "officeType": "PO",
    "district": "NORTH WEST",
    "latitude": "28.7168889",
    "longitude": "77.1380556"
  },
  {
    "stateName": "DELHI",
    "circleName": "Delhi Circle",
    "regionName": "DivReportingCircle",
    "divisionName": "Delhi North Division",
    "officeName": "Rohini Courts SO",
    "pinCode": "110085",
    "officeType": "PO",
    "district": "NORTH WEST",
    "latitude": "28.70775",
    "longitude": "77.132"
  },
  {
    "stateName": "DELHI",
    "circleName": "Delhi Circle",
    "regionName": "DivReportingCircle",
    "divisionName": "Delhi North Division",
    "officeName": "Saraswati Vihar SO",
    "pinCode": "110034",
    "officeType": "PO",
    "district": "NORTH WEST",
    "latitude": "28.6972778",
    "longitude": "77.1269444"
  },
  {
    "stateName": "DELHI",
    "circleName": "Delhi Circle",
    "regionName": "DivReportingCircle",
    "divisionName": "Delhi North Division",
    "officeName": "KIRARI SULEMAN NAGAR SO",
    "pinCode": "110086",
    "officeType": "PO",
    "district": "NORTH WEST",
    "latitude": "28.69795",
    "longitude": "77.064361"
  },
  {
    "stateName": "DELHI",
    "circleName": "Delhi Circle",
    "regionName": "DivReportingCircle",
    "divisionName": "Delhi North Division",
    "officeName": "Rohini Sector 16 PO",
    "pinCode": "110085",
    "officeType": "PO",
    "district": "NORTH WEST",
    "latitude": "28.73545",
    "longitude": "77.117477"
  },
  {
    "stateName": "DELHI",
    "circleName": "Delhi Circle",
    "regionName": "DivReportingCircle",
    "divisionName": "Delhi North Division",
    "officeName": "Nodal Delivery Centre(Parcel) Rohini",
    "pinCode": "110110",
    "officeType": "PO",
    "district": "NORTH WEST",
    "latitude": "28.71575",
    "longitude": "77.11"
  },
  {
    "stateName": "DELHI",
    "circleName": "Delhi Circle",
    "regionName": "DivReportingCircle",
    "divisionName": "Delhi North Division",
    "officeName": "Sant Nagar SO",
    "pinCode": "110084",
    "officeType": "PO",
    "district": "CENTRAL",
    "latitude": "28.7572222",
    "longitude": "77.1977777"
  },
  {
    "stateName": "DELHI",
    "circleName": "Delhi Circle",
    "regionName": "DivReportingCircle",
    "divisionName": "Delhi North Division",
    "officeName": "Baratooti SO",
    "pinCode": "110006",
    "officeType": "PO",
    "district": "NORTH",
    "latitude": "28.6594167",
    "longitude": "77.2130556"
  },
  {
    "stateName": "DELHI",
    "circleName": "Delhi Circle",
    "regionName": "DivReportingCircle",
    "divisionName": "Delhi North Division",
    "officeName": "Chandni Chowk SO",
    "pinCode": "110006",
    "officeType": "PO",
    "district": "NORTH",
    "latitude": "28.6564722",
    "longitude": "77.2247222"
  },
  {
    "stateName": "DELHI",
    "circleName": "Delhi Circle",
    "regionName": "DivReportingCircle",
    "divisionName": "Delhi North Division",
    "officeName": "Chawri Bazar SO",
    "pinCode": "110006",
    "officeType": "PO",
    "district": "NORTH",
    "latitude": "28.6511389",
    "longitude": "77.2241667"
  },
  {
    "stateName": "DELHI",
    "circleName": "Delhi Circle",
    "regionName": "DivReportingCircle",
    "divisionName": "Delhi North Division",
    "officeName": "Dareeba SO",
    "pinCode": "110006",
    "officeType": "PO",
    "district": "NORTH",
    "latitude": "28.6557222",
    "longitude": "77.2335833"
  },
  {
    "stateName": "DELHI",
    "circleName": "Delhi Circle",
    "regionName": "DivReportingCircle",
    "divisionName": "New Delhi Central Division",
    "officeName": "Ajmeri Gate Extn SO",
    "pinCode": "110002",
    "officeType": "PO",
    "district": "CENTRAL",
    "latitude": "28.6445",
    "longitude": "77.2231389"
  },
  {
    "stateName": "DELHI",
    "circleName": "Delhi Circle",
    "regionName": "DivReportingCircle",
    "divisionName": "New Delhi Central Division",
    "officeName": "Darya Ganj SO",
    "pinCode": "110002",
    "officeType": "PO",
    "district": "CENTRAL",
    "latitude": "28.6471667",
    "longitude": "77.2399444"
  },
  {
    "stateName": "DELHI",
    "circleName": "Delhi Circle",
    "regionName": "DivReportingCircle",
    "divisionName": "New Delhi Central Division",
    "officeName": "Minto Road SO",
    "pinCode": "110002",
    "officeType": "PO",
    "district": "CENTRAL",
    "latitude": "28.6339722",
    "longitude": "77.2175556"
  },
  {
    "stateName": "DELHI",
    "circleName": "Delhi Circle",
    "regionName": "DivReportingCircle",
    "divisionName": "New Delhi Central Division",
    "officeName": "Bengali Market SO",
    "pinCode": "110001",
    "officeType": "PO",
    "district": "NEW DELHI",
    "latitude": "28.6286944",
    "longitude": "77.2338611"
  },
  {
    "stateName": "DELHI",
    "circleName": "Delhi Circle",
    "regionName": "DivReportingCircle",
    "divisionName": "New Delhi Central Division",
    "officeName": "North Avenue SO",
    "pinCode": "110001",
    "officeType": "PO",
    "district": "NEW DELHI",
    "latitude": "28.631",
    "longitude": "77.2214722"
  },
  {
    "stateName": "DELHI",
    "circleName": "Delhi Circle",
    "regionName": "DivReportingCircle",
    "divisionName": "New Delhi Central Division",
    "officeName": "Shastri Bhawan SO",
    "pinCode": "110001",
    "officeType": "PO",
    "district": "NEW DELHI",
    "latitude": "28.6164444",
    "longitude": "77.2154167"
  },
  {
    "stateName": "DELHI",
    "circleName": "Delhi Circle",
    "regionName": "DivReportingCircle",
    "divisionName": "New Delhi Central Division",
    "officeName": "South Avenue SO",
    "pinCode": "110001",
    "officeType": "PO",
    "district": "NEW DELHI",
    "latitude": "28.6105833",
    "longitude": "77.1986944"
  },
  {
    "stateName": "DELHI",
    "circleName": "Delhi Circle",
    "regionName": "DivReportingCircle",
    "divisionName": "New Delhi Central Division",
    "officeName": "SRT NAGAR EXTENSION COUNTER",
    "pinCode": "110055",
    "officeType": "PO",
    "district": "CENTRAL",
    "latitude": "28.6123",
    "longitude": "77.17"
  },
  {
    "stateName": "DELHI",
    "circleName": "Delhi Circle",
    "regionName": "DivReportingCircle",
    "divisionName": "New Delhi Central Division",
    "officeName": "Bank Street SO Central Delhi",
    "pinCode": "110005",
    "officeType": "PO",
    "district": "CENTRAL",
    "latitude": "22",
    "longitude": "77"
  },
  {
    "stateName": "DELHI",
    "circleName": "Delhi Circle",
    "regionName": "DivReportingCircle",
    "divisionName": "New Delhi Central Division",
    "officeName": "Dada Ghosh Bhawan SO",
    "pinCode": "110008",
    "officeType": "PO",
    "district": "WEST",
    "latitude": "28.6527778",
    "longitude": "77.1558889"
  },
  {
    "stateName": "DELHI",
    "circleName": "Delhi Circle",
    "regionName": "DivReportingCircle",
    "divisionName": "New Delhi Central Division",
    "officeName": "Guru Gobind Singh Marg SO",
    "pinCode": "110005",
    "officeType": "PO",
    "district": "CENTRAL",
    "latitude": "28.6556667",
    "longitude": "77.199"
  },
  {
    "stateName": "DELHI",
    "circleName": "Delhi Circle",
    "regionName": "DivReportingCircle",
    "divisionName": "New Delhi Central Division",
    "officeName": "IARI SO",
    "pinCode": "110012",
    "officeType": "PO",
    "district": "WEST",
    "latitude": "28.6401944",
    "longitude": "77.1659722"
  },
  {
    "stateName": "DELHI",
    "circleName": "Delhi Circle",
    "regionName": "DivReportingCircle",
    "divisionName": "New Delhi Central Division",
    "officeName": "Multani Dhanda SO",
    "pinCode": "110055",
    "officeType": "PO",
    "district": "WEST",
    "latitude": "28.6461111",
    "longitude": "77.2094167"
  },
  {
    "stateName": "DELHI",
    "circleName": "Delhi Circle",
    "regionName": "DivReportingCircle",
    "divisionName": "New Delhi Central Division",
    "officeName": "National Physical Laboratory SO",
    "pinCode": "110012",
    "officeType": "PO",
    "district": "WEST",
    "latitude": "28.6368611",
    "longitude": "77.1696111"
  },
  {
    "stateName": "DELHI",
    "circleName": "Delhi Circle",
    "regionName": "DivReportingCircle",
    "divisionName": "New Delhi Central Division",
    "officeName": "Patel Nagar East SO",
    "pinCode": "110008",
    "officeType": "PO",
    "district": "WEST",
    "latitude": "28.6453611",
    "longitude": "77.1729722"
  },
  {
    "stateName": "DELHI",
    "circleName": "Delhi Circle",
    "regionName": "DivReportingCircle",
    "divisionName": "New Delhi South Division",
    "officeName": "Air Force Station Tugalkabad SO",
    "pinCode": "110080",
    "officeType": "PO",
    "district": "SOUTH",
    "latitude": "28.5100278",
    "longitude": "77.2542778"
  },
  {
    "stateName": "DELHI",
    "circleName": "Delhi Circle",
    "regionName": "DivReportingCircle",
    "divisionName": "New Delhi South Division",
    "officeName": "Greater Kailash SO",
    "pinCode": "110048",
    "officeType": "PO",
    "district": "SOUTH",
    "latitude": "28.5376667",
    "longitude": "77.2381389"
  },
  {
    "stateName": "DELHI",
    "circleName": "Delhi Circle",
    "regionName": "DivReportingCircle",
    "divisionName": "New Delhi South Division",
    "officeName": "Sarita Vihar SO",
    "pinCode": "110076",
    "officeType": "PO",
    "district": "SOUTH",
    "latitude": "28.5348333",
    "longitude": "77.2911667"
  },
  {
    "stateName": "DELHI",
    "circleName": "Delhi Circle",
    "regionName": "DivReportingCircle",
    "divisionName": "New Delhi South Division",
    "officeName": "Defence Colony SO South Delhi",
    "pinCode": "110024",
    "officeType": "PO",
    "district": "South East",
    "latitude": "28.58",
    "longitude": "77.23"
  },
  {
    "stateName": "DELHI",
    "circleName": "Delhi Circle",
    "regionName": "DivReportingCircle",
    "divisionName": "New Delhi South Division",
    "officeName": "Gulmohar Park SO",
    "pinCode": "110049",
    "officeType": "PO",
    "district": "South East",
    "latitude": "28.5578611",
    "longitude": "77.2131944"
  },
  {
    "stateName": "DELHI",
    "circleName": "Delhi Circle",
    "regionName": "DivReportingCircle",
    "divisionName": "New Delhi South Division",
    "officeName": "Hazrat Nizamuddin SO",
    "pinCode": "110013",
    "officeType": "PO",
    "district": "SOUTH",
    "latitude": "28.58775",
    "longitude": "77.2505833"
  },
  {
    "stateName": "DELHI",
    "circleName": "Delhi Circle",
    "regionName": "DivReportingCircle",
    "divisionName": "New Delhi South Division",
    "officeName": "Malviya Nagar SO South Delhi",
    "pinCode": "110017",
    "officeType": "PO",
    "district": "SOUTH",
    "latitude": "28.537654",
    "longitude": "77.214682"
  },
  {
    "stateName": "DELHI",
    "circleName": "Delhi Circle",
    "regionName": "DivReportingCircle",
    "divisionName": "New Delhi South Division",
    "officeName": "Nehru Nagar SO South Delhi",
    "pinCode": "110065",
    "officeType": "PO",
    "district": "South East",
    "latitude": "28.569126",
    "longitude": "77.253601"
  },
  {
    "stateName": "DELHI",
    "circleName": "Delhi Circle",
    "regionName": "DivReportingCircle",
    "divisionName": "New Delhi South Division",
    "officeName": "Pratap Market SO",
    "pinCode": "110014",
    "officeType": "PO",
    "district": "South East",
    "latitude": "28.5829444",
    "longitude": "77.2520278"
  },
  {
    "stateName": "DELHI",
    "circleName": "Delhi Circle",
    "regionName": "DivReportingCircle",
    "divisionName": "New Delhi South Division",
    "officeName": "South Malviya Nagar SO",
    "pinCode": "110017",
    "officeType": "PO",
    "district": "SOUTH",
    "latitude": "28.522982",
    "longitude": "77.214514"
  },
  {
    "stateName": "DELHI",
    "circleName": "Delhi Circle",
    "regionName": "DivReportingCircle",
    "divisionName": "New Delhi South West Division",
    "officeName": "A F Palam SO",
    "pinCode": "110010",
    "officeType": "PO",
    "district": "NEW DELHI",
    "latitude": "28.5778333",
    "longitude": "77.1221667"
  },
  {
    "stateName": "DELHI",
    "circleName": "Delhi Circle",
    "regionName": "DivReportingCircle",
    "divisionName": "New Delhi South West Division",
    "officeName": "Gurgaon Road SO",
    "pinCode": "110037",
    "officeType": "PO",
    "district": "NEW DELHI",
    "latitude": "28.545674",
    "longitude": "77.123159"
  },
  {
    "stateName": "DELHI",
    "circleName": "Delhi Circle",
    "regionName": "DivReportingCircle",
    "divisionName": "New Delhi South West Division",
    "officeName": "Hauz Khas Market SO",
    "pinCode": "110016",
    "officeType": "PO",
    "district": "SOUTH",
    "latitude": "28.5512222",
    "longitude": "77.2081667"
  },
  {
    "stateName": "DELHI",
    "circleName": "Delhi Circle",
    "regionName": "DivReportingCircle",
    "divisionName": "New Delhi South West Division",
    "officeName": "Hauz Khas SO",
    "pinCode": "110016",
    "officeType": "PO",
    "district": "SOUTH",
    "latitude": "28.546099",
    "longitude": "77.20116"
  },
  {
    "stateName": "DELHI",
    "circleName": "Delhi Circle",
    "regionName": "DivReportingCircle",
    "divisionName": "New Delhi South West Division",
    "officeName": "JNU SO",
    "pinCode": "110067",
    "officeType": "PO",
    "district": "NEW DELHI",
    "latitude": "28.55075",
    "longitude": "77.1792778"
  },
  {
    "stateName": "DELHI",
    "circleName": "Delhi Circle",
    "regionName": "DivReportingCircle",
    "divisionName": "New Delhi South West Division",
    "officeName": "JNU New Campus SO",
    "pinCode": "110067",
    "officeType": "PO",
    "district": "NEW DELHI",
    "latitude": "28.5393611",
    "longitude": "77.1635"
  },
  {
    "stateName": "DELHI",
    "circleName": "Delhi Circle",
    "regionName": "DivReportingCircle",
    "divisionName": "New Delhi South West Division",
    "officeName": "Kidwai Nagar East SO",
    "pinCode": "110023",
    "officeType": "PO",
    "district": "NEW DELHI",
    "latitude": "28.5719444",
    "longitude": "77.2176944"
  },
  {
    "stateName": "DELHI",
    "circleName": "Delhi Circle",
    "regionName": "DivReportingCircle",
    "divisionName": "New Delhi South West Division",
    "officeName": "Laxmi Bai Nagar SO",
    "pinCode": "110023",
    "officeType": "PO",
    "district": "NEW DELHI",
    "latitude": "28.5784167",
    "longitude": "77.20925"
  },
  {
    "stateName": "DELHI",
    "circleName": "Delhi Circle",
    "regionName": "DivReportingCircle",
    "divisionName": "New Delhi South West Division",
    "officeName": "Munirka SO",
    "pinCode": "110067",
    "officeType": "PO",
    "district": "NEW DELHI",
    "latitude": "28.5550833",
    "longitude": "77.1762222"
  },
  {
    "stateName": "DELHI",
    "circleName": "Delhi Circle",
    "regionName": "DivReportingCircle",
    "divisionName": "New Delhi South West Division",
    "officeName": "NIE Campus SO",
    "pinCode": "110016",
    "officeType": "PO",
    "district": "SOUTH",
    "latitude": "28.5380278",
    "longitude": "77.1935833"
  },
  {
    "stateName": "DELHI",
    "circleName": "Delhi Circle",
    "regionName": "DivReportingCircle",
    "divisionName": "New Delhi South West Division",
    "officeName": "Subroto Park SO",
    "pinCode": "110010",
    "officeType": "PO",
    "district": "NEW DELHI",
    "latitude": "28.58325",
    "longitude": "77.1473611"
  },
  {
    "stateName": "DELHI",
    "circleName": "Delhi Circle",
    "regionName": "DivReportingCircle",
    "divisionName": "New Delhi South West Division",
    "officeName": "T B Hospital SO",
    "pinCode": "110030",
    "officeType": "PO",
    "district": "SOUTH",
    "latitude": "28.5303611",
    "longitude": "77.1889722"
  },
  {
    "stateName": "DELHI",
    "circleName": "Delhi Circle",
    "regionName": "DivReportingCircle",
    "divisionName": "New Delhi South West Division",
    "officeName": "Vasant Kunj SO",
    "pinCode": "110070",
    "officeType": "PO",
    "district": "NEW DELHI",
    "latitude": "28.534162",
    "longitude": "77.152685"
  },
  {
    "stateName": "DELHI",
    "circleName": "Delhi Circle",
    "regionName": "DivReportingCircle",
    "divisionName": "New Delhi South West Division",
    "officeName": "Vasant Vihar2 SO",
    "pinCode": "110057",
    "officeType": "PO",
    "district": "NEW DELHI",
    "latitude": "28.5578889",
    "longitude": "77.15575"
  },
  {
    "stateName": "DELHI",
    "circleName": "Delhi Circle",
    "regionName": "DivReportingCircle",
    "divisionName": "New Delhi West Division",
    "officeName": "Chhawla S.O",
    "pinCode": "110071",
    "officeType": "PO",
    "district": "SOUTH WEST",
    "latitude": "28.5613",
    "longitude": "77.001911"
  },
  {
    "stateName": "DELHI",
    "circleName": "Delhi Circle",
    "regionName": "DivReportingCircle",
    "divisionName": "New Delhi West Division",
    "officeName": "District Court Complex Dwarka S.O",
    "pinCode": "110075",
    "officeType": "PO",
    "district": "SOUTH WEST",
    "latitude": "28.580691",
    "longitude": "77.059203"
  },
  {
    "stateName": "DELHI",
    "circleName": "Delhi Circle",
    "regionName": "DivReportingCircle",
    "divisionName": "New Delhi West Division",
    "officeName": "N.S.I.T. Dwarka S.O",
    "pinCode": "110078",
    "officeType": "PO",
    "district": "SOUTH WEST",
    "latitude": "28.6102222",
    "longitude": "77.0376667"
  },
  {
    "stateName": "DELHI",
    "circleName": "Delhi Circle",
    "regionName": "DivReportingCircle",
    "divisionName": "New Delhi West Division",
    "officeName": "Najafgarh S.O",
    "pinCode": "110043",
    "officeType": "PO",
    "district": "WEST",
    "latitude": "28.607195",
    "longitude": "76.98457"
  },
  {
    "stateName": "DELHI",
    "circleName": "Delhi Circle",
    "regionName": "DivReportingCircle",
    "divisionName": "New Delhi West Division",
    "officeName": "Nangal Raya S.O",
    "pinCode": "110046",
    "officeType": "PO",
    "district": "NEW DELHI",
    "latitude": "28.6110556",
    "longitude": "77.1088056"
  },
  {
    "stateName": "DELHI",
    "circleName": "Delhi Circle",
    "regionName": "DivReportingCircle",
    "divisionName": "New Delhi West Division",
    "officeName": "Naraina Village S.O",
    "pinCode": "110028",
    "officeType": "PO",
    "district": "NEW DELHI",
    "latitude": "28.6305",
    "longitude": "77.1349167"
  },
  {
    "stateName": "DELHI",
    "circleName": "Delhi Circle",
    "regionName": "DivReportingCircle",
    "divisionName": "New Delhi West Division",
    "officeName": "Palam Village S.O",
    "pinCode": "110045",
    "officeType": "PO",
    "district": "SOUTH WEST",
    "latitude": "28.5911667",
    "longitude": "77.0905556"
  },
  {
    "stateName": "DELHI",
    "circleName": "Delhi Circle",
    "regionName": "DivReportingCircle",
    "divisionName": "New Delhi West Division",
    "officeName": "Qutub Vihar SO",
    "pinCode": "110071",
    "officeType": "PO",
    "district": "SOUTH WEST",
    "latitude": "28.574806",
    "longitude": "77.627685"
  },
  {
    "stateName": "DELHI",
    "circleName": "Delhi Circle",
    "regionName": "DivReportingCircle",
    "divisionName": "New Delhi West Division",
    "officeName": "Hari Nagar BE Block S.O",
    "pinCode": "110064",
    "officeType": "PO",
    "district": "WEST",
    "latitude": "28.6287778",
    "longitude": "77.1226111"
  },
  {
    "stateName": "DELHI",
    "circleName": "Delhi Circle",
    "regionName": "DivReportingCircle",
    "divisionName": "New Delhi West Division",
    "officeName": "Jwala Puri S.O",
    "pinCode": "110087",
    "officeType": "PO",
    "district": "WEST",
    "latitude": "28.6800278",
    "longitude": "77.07875"
  },
  {
    "stateName": "DELHI",
    "circleName": "Delhi Circle",
    "regionName": "DivReportingCircle",
    "divisionName": "New Delhi West Division",
    "officeName": "L. M. Nagar Indl. Area S.O",
    "pinCode": "110015",
    "officeType": "PO",
    "district": "WEST",
    "latitude": "28.6541389",
    "longitude": "77.1356389"
  },
  {
    "stateName": "DELHI",
    "circleName": "Delhi Circle",
    "regionName": "DivReportingCircle",
    "divisionName": "New Delhi West Division",
    "officeName": "Madipur Slum Quarter S.O",
    "pinCode": "110063",
    "officeType": "PO",
    "district": "WEST",
    "latitude": "28.6667222",
    "longitude": "77.1190556"
  },
  {
    "stateName": "DELHI",
    "circleName": "Delhi Circle",
    "regionName": "DivReportingCircle",
    "divisionName": "New Delhi West Division",
    "officeName": "Punjabi Bagh S.O",
    "pinCode": "110026",
    "officeType": "PO",
    "district": "WEST",
    "latitude": "28.6678611",
    "longitude": "77.1434444"
  },
  {
    "stateName": "DELHI",
    "circleName": "Delhi Circle",
    "regionName": "DivReportingCircle",
    "divisionName": "New Delhi West Division",
    "officeName": "Rajouri Market S.O",
    "pinCode": "110027",
    "officeType": "PO",
    "district": "WEST",
    "latitude": "28.6455278",
    "longitude": "77.1274722"
  },
  {
    "stateName": "DELHI",
    "circleName": "Delhi Circle",
    "regionName": "DivReportingCircle",
    "divisionName": "New Delhi West Division",
    "officeName": "Sunder Vihar S.O",
    "pinCode": "110087",
    "officeType": "PO",
    "district": "WEST",
    "latitude": "28.6663889",
    "longitude": "77.0881667"
  },
  {
    "stateName": "DELHI",
    "circleName": "Delhi Circle",
    "regionName": "DivReportingCircle",
    "divisionName": "New Delhi West Division",
    "officeName": "Vishnu Garden S.O",
    "pinCode": "110018",
    "officeType": "PO",
    "district": "WEST",
    "latitude": "28.6573333",
    "longitude": "77.1083611"
  },
  {
    "stateName": "DELHI",
    "circleName": "Delhi Circle",
    "regionName": "DivReportingCircle",
    "divisionName": "New Delhi West Division",
    "officeName": "Sanjay Enclave PO",
    "pinCode": "110059",
    "officeType": "PO",
    "district": "WEST",
    "latitude": "28.613029",
    "longitude": "77.059756"
  },
  {
    "stateName": "DELHI",
    "circleName": "Delhi Circle",
    "regionName": "DivReportingCircle",
    "divisionName": "New Delhi West Division",
    "officeName": "K5 Extn. Mohan Garden",
    "pinCode": "110059",
    "officeType": "PO",
    "district": "WEST",
    "latitude": "28.635437",
    "longitude": "77.043958"
  },
  {
    "stateName": "DELHI",
    "circleName": "Delhi Circle",
    "regionName": "DivReportingCircle",
    "divisionName": "Delhi East Division",
    "officeName": "Jhilmil HO",
    "pinCode": "110095",
    "officeType": "HO",
    "district": "SHAHDARA",
    "latitude": "28.6739167",
    "longitude": "77.3198333"
  }
]